name,address,lon,lat
鼎億堂中醫診所,南投縣竹山鎮集山路三段213號,120.701237,23.763470
宏昌中醫診所,草屯鎮虎山路827號,120.685727,23.976157
濟生中醫診所,埔里鎮中正路435號,120.966582,23.965547
中興大愛中醫診所,南投縣南投市學藝路5號,120.689041,23.950271
詠祥中醫診所,南投市中山街191號1樓,120.685430,23.909493
元和堂中醫診所,南投市仁德路57號,120.693957,23.943313
承心中醫診所,草屯鎮草鞋墩一街5、7號1F,120.681925,23.973742
十方中醫診所,埔里鎮西安路1段333號,120.969470,23.973027
永安中醫診所,南投縣草屯鎮明賢街一段28號,120.686885,23.975529
德安中醫診所,南投市彰南路2段510號,120.678377,23.918503
元濟中醫診所,埔里鎮中華路257號,120.971875,23.971613
和平中醫診所,水里鄉民權路252號,120.850815,23.816830
隆安中醫診所,南投市彰南路2段8號,120.685062,23.908387
首茗中醫診所,埔里鎮東華路120號1F,120.970147,23.964192
平安中醫診所,埔里鎮八德路12-2號1樓,120.971011,23.971549
一品堂中醫診所,南投市復興路78號,120.688177,23.903652
富康中醫診所,南投市祖祠路275號1樓,120.678077,23.914263
維康中醫診所,南投市三和一路87號,120.686256,23.902149
聖明中醫診所,草屯鎮碧山南路30號,120.680743,23.978197
民生中醫診所,埔里鎮民生路137號1樓,120.962642,23.960069
台中榮民總醫院埔里分院,埔里鎮榮光路1號,120.996810,23.975802
竹山秀傳醫院,竹山鎮集山路2段75號,120.714117,23.800149
埔里基督教醫院,埔里鎮鐵山路1號,120.946799,23.970928
聖恩中醫診所,南投市嘉和北路17.19號1樓,120.686325,23.901897
順安中醫診所,南投市大同街149號,120.687456,23.909376
禾安中醫診所,南投市民族路260號,120.687123,23.909058
福氣中醫診所,草屯鎮虎山路69號1F,120.684760,23.959154
冠雲中醫診所,埔里鎮中山路2段351號,120.966431,23.964103
施治寰中醫診所,埔里鎮南昌街183號,120.965338,23.965520
福康中醫診所,埔里鎮中山路2段92號,120.973609,23.970033
大眾中醫診所,埔里鎮南昌街202號,120.965239,23.965893
普仁中醫診所,埔里鎮東峰路19號,120.945633,24.002844
裕生中醫診所,埔里鎮四維路26~1號1F,120.973687,23.966111
晟瑞中醫診所,埔里鎮信義路335巷1號1樓,120.968530,23.972778
明山中醫診所,草屯鎮炎峰街17號,120.686463,23.980060
蒼生中醫診所,草屯鎮草溪路959號,120.680904,23.975923
洪日宏中醫診所,草屯鎮太平路1段503號1樓,120.682370,23.967692
鴻濟中醫診所,草屯鎮碧山南路112-1號,120.678177,23.978528
開明堂中醫診所,草屯鎮虎山路519號,120.686907,23.969335
豐本中醫診所,草屯鎮中山街216號,120.683193,23.978600
唐中醫診所,草屯鎮新生路169號,120.684182,23.964969
言臻中醫診所,草屯鎮太平路2段198號1F,120.683618,23.973835
永隆中醫診所,草屯鎮太平路1段95~1號1、2樓,120.682626,23.969290
萬安中醫診所,竹山鎮集山路3段785號,120.685674,23.758495
大明中醫診所,竹山鎮大明路183號,120.684808,23.760092
佑生中醫診所,名間鄉員集路126號,120.702706,23.835668
保生堂中醫診所,水里鄉民權路130號,120.853272,23.817691
寶光中醫診所,水里鄉民族路356號1樓,120.855009,23.813507
坤融中醫診所,南投市中山街154號1F,120.686093,23.908840
智全中醫診所,埔里鎮南興街279號,120.963937,23.963992
惠群中醫診所,竹山鎮橫街60號,120.683564,23.755407
益品安中醫診所,水里鄉民生路387號1樓,120.853959,23.816832
許美照中醫診所,台中市南屯區文心南五路一段642號1、2樓,120.637461,24.132522
仁一中醫診所,臺中市大里區東興里東明路271號,120.682501,24.113068
廣和中醫診所,台中市大雅區學府路250巷44號,120.651321,24.223476
宜德中醫診所,台中市北區天祥街72號,120.696680,24.160826
DR.SHEN醫豪中醫診所,台中市西區金山路29號,120.670604,24.140827
大台中和平中醫診所,台中市中區民權路156號1樓,120.676886,24.140795
聖沅中醫診所,台中市東區十甲路439號,120.708864,24.144645
漢昇中醫診所,台中市南屯區忠勇路27-3號,120.612190,24.138007
維信華信聯合門診華信中醫診所,台中市南屯區大墩路471號,120.649666,24.147551
酉安中醫診所,台中市南區美村南路113號一樓,120.666629,24.117609
大立內外科中醫診所,台中市東區復興路四段218-1號,120.688362,24.136517
安泰中醫診所,台中市北屯區昌平路一段105之10號,120.690323,24.173825
信宏中醫診所,台中市南區永東街49號,120.673272,24.124580
啟源中醫診所,台中市西屯區西屯路三段166～3號,120.608007,24.190404
許啟仁中醫診所,台中市大里區永隆路31號,120.677449,24.104617
歆安中醫診所,台中市北屯區東山路一段204號,120.712290,24.172404
大謙經典中醫,台中市南屯區五權西路二段167號,120.650530,24.139811
賀康中醫診所,台中市北屯區景賢路99號,120.724314,24.166602
世傳中醫診所,台中市南區復興路二段34-7號,120.659937,24.119266
崇毓中醫診所,台中市東區十甲東路828號,120.710627,24.149401
羅萬右中醫診所,台中市西屯區河南路一段91號,120.662544,24.168647
仁美中醫診所,台中市西屯區文心路三段138之20號,120.654311,24.167673
恩民中醫診所,台中市西屯區上安路119號,120.638904,24.171858
佛教正德醫院,臺中市南屯區文心南五路三段100號,120.630926,24.143208
北屯德濟中醫診所,台中市北屯區崇德八路一段158號,120.687372,24.183793
東方中醫診所,台中市南屯區向上路一段669號,120.648283,24.146591
和樂中醫診所,台中市南區復興路一段207巷22弄2號,120.650223,24.112407
松鶴二仙堂中醫診所,台中市北屯區中清路二段623號,120.664995,24.183606
一二三中醫診所,台中市西區建國路3號1樓,120.676057,24.133365
雲玥中醫診所,台中市西區向上路一段406號1.2樓,120.655387,24.146877
澄觀中醫診所,台中市南屯區公益路二段6號,120.652480,24.151091
德信中醫診所,台中市中區綠川西街175巷17號,120.684579,24.139889
仁美堂中醫診所,台中市北屯區豐樂路21之1號,120.689369,24.193151
鴻安中醫診所,台中市南屯區干城街291號,120.634272,24.152629
同濟中醫聯合診所,台中市北屯區中清路二段48號,120.671372,24.174759
惠文扶原中醫診所,台中市南屯區河南路四段528號,120.638341,24.146363
圓扶原中醫診所,台中市南區南屯路一段259號,120.656713,24.133972
扶原中醫診所,台中市北屯區熱河路二段117號,120.687458,24.171028
來佑安中醫診所,台中市北屯區熱河路三段67號,120.688216,24.177461
高堂中醫聯合診所,台中市西屯區重慶路229號,120.658337,24.168396
東興中醫診所,台中市西區東興路三段126-3號,120.653251,24.148928
慧心中醫診所,台中市西區公館路140號,120.669556,24.134689
慧心中醫診所,台中市公館路140號,120.669556,24.134689
富春中醫診所,台中市中區台灣大道一段567號,120.676249,24.145109
甘泉堂中醫診所,台中市東區和平街176號2樓,120.687420,24.134706
李德茂中醫診所,台中市北區梅川西路三段35巷6號,120.677117,24.166364
文唐中醫診所,台中市南屯區五權西路二段627號,120.639655,24.141537
芯泉中醫診所,台中市南區忠明南路821-6號,120.661950,24.122508
廣達中醫診所,台中市西屯區一段179號,,
文華中醫診所,台中市西屯區太原路一段234號,120.663353,24.163867
德濟中醫診所,台中市北區五權路488-8號,120.683268,24.153067
明荷中醫診所,台中市西區南屯路一段150號1樓,120.660687,24.132867
信澄中醫診所,台中市大里區國光路二段587號1樓,120.678878,24.113667
元熙中醫診所,台中市西屯區永福路139號2樓,120.620812,24.184698
成祐中醫診所,台中市西區公益路152-1號2樓,120.659385,24.151050
聖和中醫診所,臺中市東勢區南平里第二橫街40號,120.829173,24.254584
康程中醫診所,台中市南區復興路二段155-3號,120.665357,24.126823
存德中醫診所,台中市西區模範街9巷11號,120.666051,24.147791
國寶中醫診所,台中市北區博館一街12號1樓,120.667375,24.154776
緻宸中醫診所,台中市大雅區雅環路一段340號1樓,120.653698,24.223868
博康中醫診所,台中市西區博館路127號,120.664565,24.156914
寶田中醫診所,台中市北屯區崇德路一段552號1.2樓,120.685364,24.167241
臺中榮民總醫院,台中市西屯區台灣大道四段1650號,120.604647,24.184298
祥鶴中醫診所,台中市東區大智路294號,120.690026,24.130658
張白欣中醫診所,台中市西區文化街156號2樓之二,120.671593,24.152547
瑞恩中醫診所,台中市神岡區神岡路38號,120.661015,24.257721
衛生福利部臺中醫院,台中市西區三民路一段199號,120.675711,24.140225
匯智中醫診所,台中市北屯區河北路二段223號1、2F,120.683494,24.175211
一品堂南屯中醫診所,台中市南屯區永春東一路700號,120.641583,24.132740
恒安中醫診所,台中市潭子區中山路一段17-8號,120.702313,24.190128
永康中醫聯合診所,台中市北屯區中清路二段416號,120.667323,24.180254
國軍臺中總醫院中清分院,台中市北區忠明路500號。,120.673000,24.161338
中山醫學大學附設醫院,台中市南區建國北路一段110號,120.649900,24.121753
中山醫學大學附設醫院中興分院,台中市南區復興路2段11號,120.658559,24.118123
中國醫藥大學附設醫院中醫部,台中市北區育德路2號,120.680049,24.157212
仁祐堂中醫診所,台中市東勢區豐勢路487號 1樓,120.827924,24.257909
永丞中醫診所,台中市太平區樹孝路487號1樓,120.720298,24.158525
仁源中醫診所,台中市太平區長億六街116號,120.716097,24.119060
弘濟堂中醫診所,台中市東區忠孝路386號,120.689483,24.132577
民安中醫診所,台中市東區進化路185號,120.693952,24.147584
宏樺中醫診所,台中市西區博館二街259號1樓,120.672397,24.149756
澄心堂中醫診所,台中市西區三民西路99號,120.665301,24.130451
雙木中醫診所,台中市西區府後街11號,120.675494,24.136755
淮聖中醫診所,台中市西區梅川西路一段137號,120.670813,24.149281
御中醫診所,台中市南區復興北路30號,120.659634,24.121670
民和中醫診所,台中市南區文心南路901巷26號,120.659392,24.110410
醫林中醫診所,台中市北區進化北路378-29號,120.678850,24.163353
椿生中醫診所,台中市北區興進路102號一樓,120.696314,24.155745
台中崇德仁心堂中醫診所,台中市北區崇德路一段280號,120.685218,24.162201
御元中醫診所,台中市西屯區國安一路65號,120.614138,24.190586
圓通中醫診所,台中市西屯區杏林路26巷8號1樓,120.642241,24.167242
大進中醫診所,台中市南屯區大進街102號1樓,120.651459,24.144539
明雅堂中醫診所,台中市南屯區向上路一段574號1樓,120.650965,24.146871
郭芳序中醫診所,台中市南屯區文心路一段175號,120.646432,24.141604
德馨中醫診所,台中市南屯區東興路二段203號,120.652776,24.141552
益安中醫診所,台中市北屯區松竹路二段138號,120.697691,24.183250
群復中醫診所,台中市北屯區大連路二段242號,120.689087,24.175436
大德中醫診所,台中市北屯區松竹五路一段267號1樓,120.707879,24.174803
一貫堂中醫診所,台中市北屯區豐樂路11－1號1－2樓,120.685250,24.193655
夏禾中醫診所,台中市北屯區建和路二段271號1樓,120.724541,24.174772
龍中醫診所,台中市北屯區梅川西路四段291號1樓,120.679591,24.174717
宏蓁中醫診所,台中市北屯區天津路三段89號,120.681951,24.169785
日禾中醫診所,台中市北屯區中清路二段309號,120.668037,24.178629
弘生堂中醫診所,台中市東區忠孝路476號,120.690927,24.133213
蔡順輝中醫診所,台中市西區五權五街82-4號,120.661316,24.136704
靖唐中醫診所,台中市西區五權西一街11號,120.664338,24.139489
公益中醫診所,台中市西區向上北路231號,120.659229,24.147704
昭理中醫診所,台中市西區公益路48號1樓,120.668088,24.150983
長春中醫診所,台中市南區復興路三段360號,120.679720,24.132871
順天堂中醫診所,台中市南區文心南十路210號,120.656735,24.116824
明功堂中醫診所,台中市北區成功路428號,120.676576,24.146533
長青中醫診所,台中市北區東漢街7號1樓,120.679319,24.166163
大同中醫聯合診所,台中市西屯區黎明路三段308號,120.638670,24.181542
主安中醫診所,台中市西屯區河南路二段357號,120.645081,24.171714
信德中醫診所,台中市西屯區太原路一段197號,120.660990,24.162755
漢華中醫診所,台中市西屯區黎明路3段381－383號,120.638570,24.181965
神農讚中醫診所,台中市西屯區漢口路一段133號,120.657043,24.162693
喬邦中醫診所,台中市西屯區西屯路三段166之41號,120.614043,24.189921
醫龍中醫診所,台中市西屯區上安路132號1樓,120.640094,24.171420
詮恩中醫診所,台中市西屯區西屯路三段166-76號,120.612300,24.190570
辰安堂中醫診所,台中市南屯區精誠南路139號,120.654382,24.132487
臻品中醫診所,台中市南屯區東興路二段341號,120.652781,24.144504
東辰中醫診所,台中市南屯區河南路四段240號,120.636540,24.154174
保生中醫診所,台中市北屯區國校巷20號,120.690933,24.165248
晏琳中醫診所,台中市北屯區東山路一段197-5號,120.710781,24.172135
惠民中醫診所,台中市北屯區興安路一段270號1樓,120.694540,24.172585
光華中醫診所,台中市北屯區崇德路二段323號,120.685693,24.178028
千庭中醫診所,台中市北屯區北屯路441之8號,120.700897,24.180029
崇德中醫診所,台中市北屯區松竹路三段43號1樓,120.684616,24.181424
惠康中醫診所,台中市北屯區文昌二街82號,120.681822,24.171686
健祥中醫診所,台中市北區日興街182號1樓,120.675728,24.150945
行願中醫診所,台中市東區力行路50號1樓,120.695926,24.151098
睿生中醫診所,台中市北屯區松竹路二段321號,120.692359,24.182610
工學北中醫診所,台中市南區工學北路65-1號,120.660945,24.118490
奇恒中醫診所,台中市南屯區文心路一段428號,120.647019,24.150486
愛仁中醫診所,台中市南屯路二段708好號,120.655292,24.134841
信安中醫診所,台中市西區大進街210號1樓,120.651393,24.146080
沐炅中醫診所,台中市北屯區太和一街91號,120.725393,24.162360
華泰中醫診所,台北市松山區新東街66巷18號1樓,121.566042,25.062342
天和堂中醫診所,台北市文山區景美街1－5號1樓,121.541732,24.994105
天璽中醫診所,台北市北市北投區裕民二路33巷2號1樓,,
漢方中醫聯合診所,台北市萬華區西園路2段254巷5號,121.494536,25.028050
杏福中醫診所,台北市大安區復興南路二段131號一樓,121.543713,25.028956
指筌中醫診所,台北市士林區德行西路102號1樓,121.520995,25.103974
大安悅兒親子中醫診所,台北市大安區光復南路432號,121.557371,25.036095
滋和堂中醫診所,台北市中山區新生北路一段59-1號,121.529380,25.048912
興安養生堂中醫診所,北市中山區興安街51之6號,121.541321,25.056207
同德中醫診所,台北市南港區同德路30號,121.584140,25.045134
雙連中醫診所,台北市中山區民生西路6號9樓,121.522327,25.057718
慈護晶璽中醫診所,台北市信義區松信路38號,121.572070,25.048040
騏安中醫診所,台北市金湖路386號,121.604957,25.073670
天方中醫診所,台北市士林區中山北路六段157巷14號1樓,121.524247,25.107005
寧波中醫診所,台北市寧波西街80-1號,121.516094,25.029910
理想中醫診所,台北市松山區南京東路五段46號2樓,121.559787,25.051302
建榮中醫診所,台北市內湖區成功路三段174巷16號,121.590425,25.081325
駿琳大直中醫診所,台北市北安路598之一號,121.548897,25.081828
佳譽堂中醫診所,台北市中正區寧波西街71號,121.516999,25.030481
全德中醫診所,台北市大安區羅斯福路三段37號3樓,121.525367,25.023505
大直北安中醫診所,台北市中山區北安路575號,121.548475,25.081302
宏福中醫診所,台北市文山區木柵路一段182號1樓,121.552605,24.987749
寶安中醫診所,台北市士林區中正路407號1樓,121.520976,25.093775
欣百漢中醫診所,台北市松山區南京東路五段80號,121.561268,25.051266
錦禾中醫診所,台北市內湖區港墘路121號,121.576284,25.078258
士林錦禾中醫診所,台北市士林區士東路16號,121.526908,25.111744
厚德中醫診所,台北市中正區南昌路一段53號,121.517293,25.031282
新光醫院,台北市士林區士商路51號,121.520251,25.090823
澄玥中醫診所,台北市中山區松江路100巷1號1樓,121.532217,25.051096
雲鼎中醫診所,台北市大安區光復南路306號,121.557436,25.038910
雲品中醫診所,台北市大安區忠孝東路四段216巷19弄4號,121.553254,25.040232
澄觀中醫診所,台北市中山區吉林路23號,121.530170,25.050697
悅展中醫診所,台北市士林區延平北路五段243號,121.509720,25.084648
昇陽一品中醫診所,台北市大安區敦化南路一段236巷9號,121.547456,25.040673
昇陽中醫診所,台北市大安區潮州街85號,121.526134,25.028987
仲佑中醫診所,台北市松山區八德路三段212號1樓,121.556762,25.047975
聖心中醫診所,台北市信義區和平東路三段391巷28號,121.558538,25.020447
日明耀中醫診所,台北市中正區重慶南路一段66之1號2樓,121.513098,25.043609
學德堂中醫診所,台北市中山區松江路97巷2-1號,121.533523,25.050934
保惠中醫診所,台北市大安區嘉興街363巷18弄1號,121.552656,25.021325
明昇中醫診所,台北市大同區赤峰街13號1樓,121.519251,25.053728
德昌中醫診所,台北市松山區延吉街38號1樓,121.553529,25.045864
醫心堂中醫診所,台北市大安區信義路四段267號二樓,121.554381,25.033459
星福中醫診所,台北市文山區景興路93號,121.544820,24.995612
汀洲中醫診所,台北市中正區汀州路2段213號1樓,121.522588,25.023577
峻毅中醫診所,台北市中正區和平西路1段30號,121.520546,25.026572
上璽中醫診所,台北市大安區信義路四段一號7樓之1,121.543915,25.033566
恩濟堂中醫診所,台北市中山區復興北路514巷63號,121.541478,25.066068
得原中醫診所,台北市北市中山區錦州街259號1樓,,
翰林中醫診所,台北市南港區研究院路一段27號,121.616544,25.053830
大道中醫診所,台北市中正區忠孝西路一段41號8樓之6,121.518384,25.046171
太淵中醫診所,台北市信義區松山路335號,121.577989,25.041820
三軍總醫院附設民眾診療服務處,台北市內湖區成功路2段325號,121.591982,25.071800
惠眾中醫診所,台北市士林區美德街70號,121.525071,25.095714
泰興中醫診所,台北市內湖路一段629巷10號1樓,121.574623,25.080966
台北馬偕紀念醫院,台北市中山區中山北路二段92號,121.522558,25.058883
天一中醫診所,台北市大同區重慶北路三段98號,121.513457,25.066717
養生堂中醫診所,台北市文山區忠順街一段80號,121.561130,24.984321
麗風堂中醫診所,台北市中山區中山北路二段12號2樓,121.522386,25.052945
新生中醫診所,台北市中山區興安街91號,121.543223,25.056194
慈愛中醫診所,台北市北投區自強街108號,121.515322,25.110717
民昇中醫診所,台北市民生東路五段87號,121.559364,25.058782
仁心堂中醫診所,台北市中山區長春路267號1樓,121.541274,25.054759
鼎昌中醫診所,台北市中山區南京東路三段200號3樓之2,121.543074,25.051677
昀漾中醫診所,臺北市士林區文林路558號,121.524015,25.097740
忠孝昌盛堂中醫診所,台北市大安區忠孝東路4段205巷7弄1號3樓,121.552021,25.042183
欣悅中醫診所,台北市松山區南京東路四段193號,121.556786,25.051762
新悅中醫診所,台北市大同區民生西路71號1樓,121.519941,25.057691
明悅中醫診所,台北市大安區忠孝東路四段210-1號9樓,121.552580,25.041232
陳潮宗中醫診所,台北市大同區民權西路127號,121.517210,25.063115
士林同仁中醫診所,台北市士林區文林路402號,121.525039,25.093869
善揚中醫診所,台北市北投區西安街1段157號,121.518717,25.109392
定傳中醫診所,台北市北投區懷德街3-7號,121.519563,25.110671
薇晶中醫診所,台北市大安區忠孝東路四段270號2樓之1,121.554847,25.041186
台北長庚紀念醫院,台北市松山區敦化北路199號,121.549618,25.055508
中國醫藥大學附設醫院臺北分院,台北市內湖區內湖路二段360號,121.590599,25.082125
台北醫學大學附設醫院,台北市信義區吳興街252號,121.563638,25.026637
臺北市立萬芳醫院,台北市文山區興隆路三段111號,121.558330,25.000305
仁和堂中醫診所,台北市松山區八德路四段201號,121.563762,25.048907
博康中醫診所,台北市松山區南京東路五段280號1F,121.567087,25.051134
渼生堂中醫診所,台北市松山區八德路三段138號,121.554562,25.048009
春日和中醫診所,台北市松山區復興北路81巷35號,121.545593,25.051258
金龍堂中醫診所,台北市大安區泰順街17號一樓,121.531530,25.025013
醫道堂黃中醫診所,台北市大安區延吉街233之3號二樓,121.555670,25.036787
吉辰中醫診所,台北市大安區復興南路二段321號,121.543570,25.023930
宏秀堂中醫診所,台北市政大安區忠孝東路三段217巷2弄16號1樓,121.540602,25.042237
瑞康中醫診所,台北市大安區瑞安街208巷24弄12號,121.540098,25.028638
京禾中醫診所,台北市大安區復興南路二段173-1號2樓,121.543687,25.027407
景崧現代中醫診所,台北市大安區臨江里基隆路二段148號,121.556327,25.027954
大觀堂中醫診所,台北市大安區延吉街118號,121.554630,25.040471
吉升堂中醫診所,台北市泰順街44巷13號,121.530693,25.023848
樂業中醫診所,台北市大安區樂業街59號,121.550670,25.022183
易明中醫診所,台北市大安區辛亥路2段39號,121.536199,25.022839
康禾中醫診所,台北市大安區羅斯福路三段275號2樓,121.530956,25.018343
樂陽中醫診所,台北市大安區和平東路三段304號,121.556372,25.020496
德霖中醫診所,台北市大安區信義路四段168號1樓,121.550792,25.033041
詠恩中醫診所,台北市大安區和平東路三段236號,121.554840,25.021941
順天堂中醫診所,台北市大同區昌吉街79號,121.514292,25.065992
良元中醫診所,台北市大同區長安西路51-1號,121.517690,25.050827
京水堂中醫診所,台北市南京西路22號3樓,121.519993,25.052578
德全中醫診所,台北市中山區錦卅街171號,,
朝暉中醫診所,台北市中山區龍江路281巷1號2樓,121.540891,25.059895
有聲中醫診所,台北市中山區中原街50號,121.528796,25.058416
常生中醫診所,台北市中山區長安東路二段47號,121.531979,25.048575
元氣堂中醫診所,台北市中山區吉林路223號,121.530371,25.060711
景欣中醫診所,台北市中山區南京東路2段95號2樓,121.532255,25.052246
禾儒中醫診所,台北市中山區松江路268號5樓,121.532940,25.059532
傳愛經典中醫診所,台北市中山區龍江路29號,121.540516,25.048590
詠生中醫診所,台北市中山區樂群二路196號,121.558702,25.079687
東仁中醫診所,台北市錦州街275號,121.535520,25.060379
林國榮中醫診所,台北市民生東路二段112號,121.531332,25.057842
昌盛堂中醫診所,台北市中山區松江路277號2樓,121.533378,25.060089
吉林中醫診所,台北市中山區吉林路428號,121.530283,25.066099
醫誠堂中醫診所,台北市中山區龍江路185-1號一樓,121.540800,25.055586
晴光中醫診所,台北市中山區雙城街四巷2號,121.524259,25.063292
祐瑞中醫診所,台北市中山區松江路69巷11號1樓,121.534294,25.049423
璟榮中醫診所,台北市東湖路43巷31號,121.613240,25.070084
麗馨中醫診所,台北市內湖區東湖路120號2樓,121.616164,25.068138
恩光中醫診所,台北市內湖區江南街15號,121.578669,25.078333
善品中醫診所,台北市內湖區成功路四段30巷22號,121.591705,25.082419
瀚威中醫診所,台北市內湖區新明路277號,121.586096,25.057475
杞子中醫診所,台北市南港區南港路一段 169號2樓,121.613264,25.055161
信愛中醫診所,台北市士林區文林路478號1樓,121.524439,25.096077
新長庚中醫診所,台北市士林區大東路176號一樓,121.525188,25.093088
寬安中醫診所,台北市士林區士東路50號,121.527901,25.111884
顏居雲中醫診所,台北市士林區華齡街72號1樓,121.519456,25.084489
仰德中醫診所,台北市士林區天母北路18號,121.526296,25.119672
福華中醫診所,台北市忠誠路二段76巷8號1樓,121.530327,25.111924
一春堂中醫診所,台北市士林區德行東路187-1號,121.531509,25.108920
芝音中醫診所,台北市士林區福華路128巷10號,121.523155,25.102885
承新中醫診所,台北市士林區中正路203號2樓,121.526827,25.095367
社子中醫診所,台北市士林區延平北路六段87號,121.508612,25.088505
承德中醫診所,台北市士林區大南路277號1樓,121.519302,25.088661
泰昌堂中醫診所,台北市中山北路六段208號2F,121.525311,25.108263
耕德中醫診所,台北市北投區中央北路一段38號,121.500861,25.134001
華杏中醫診所,台北市北投區西安街一段369號二樓,121.514985,25.114650
佳禾中醫診所,台北市北投區石牌路一段101號,121.511942,25.114024
石牌尊賢中醫診所,台北市北投區尊賢街249巷2號,121.506737,25.117719
悅馨中醫診所,台北市北投區西安街一段173號,121.518428,25.109810
三合中醫診所,台北市北投區三合街二段446號,121.502191,25.126674
全禾中醫診所,台北市北投區光明路166號1樓,121.502641,25.135000
蔡榮鏡中醫診所,台北市信義區林口街24巷8號,121.579732,25.037420
大成中醫診所,台北市信義區永吉路200巷56弄2號,121.572520,25.043362
陳士源中醫診所,台北市信義區永吉路492號1樓,121.579374,25.045241
格康中醫診所,台北市信義區莊敬路437號1樓,121.566992,25.027173
興漢中醫診所,台北市信義區虎林街121巷10號1樓,121.577428,25.040226
微笑中醫診所,台北市信義區忠孝東路五段71巷11弄2號,121.567492,25.041909
心悅中醫診所,台北市信義區忠孝東路五段482號3樓之1,121.577997,25.040597
歸元中醫診所,台北市虎林街132巷32號1樓,121.575880,25.040402
頌讚中醫診所,台北市信義區莊敬路325巷4號,121.563935,25.028203
昫安中醫診所,台北市信義區永吉路527號2樓,121.580400,25.045535
沄禾中醫診所,台北市信義區林口街192號,121.580928,25.041094
同安中醫診所,台北市中正區同安街41號,121.522429,25.024805
珍仁堂中醫診所,台北市新生南路一段110之2號,121.532549,25.039444
和平中醫診所,台北市和平西路二段123號,121.506260,25.032831
張順晶中醫診所,台北市中正區羅斯福路二段44號5樓,121.521521,25.027961
永康中醫診所,台北市中正區連雲街75號,121.530134,25.034455
六節中醫診所,台北市中正區汀州路2段198號,121.523290,25.022725
天心中醫診所,台北市中正區武昌街一段33號,121.511999,25.044157
東門中醫診所,台北市中正區連雲街81號2樓,121.530178,25.034317
茂澤中醫診所,台北市中正區臨沂街6巷5號1樓,121.530315,25.042535
沂禾中醫診所,台北市中正區臨沂街33巷38號1樓,121.531656,25.039767
岐善中醫診所,台北市萬華區中華路二段484巷14-3號,121.506563,25.026706
昱安堂中醫診所,台北市萬華區貴陽街二段135號,121.501284,25.040285
信願堂中醫診所,台北市木新路二段118號,121.569607,24.984439
吳明珠中醫診所,台北市文山區羅斯福路5段21號2樓之1,121.538549,25.007905
常春藤中醫診所,台北市文山區羅斯福路五段197號2樓,121.538970,25.002514
真善美中醫診所,台北市文山區忠順街一段129號,121.560445,24.984378
京順中醫診所,台北市文山區興隆路三段52號2樓,121.555848,25.000164
玉函中醫診所,台北市文山區木柵路一段159號,121.550579,24.987670
至善醫坊中醫診所,台北市文山區景文街46-1號2樓,121.541231,24.991368
百齡中醫診所,台北市士林區華齡街57號,121.519307,25.084475
宏達中醫診所,台北市中正區汀州路三段211號2樓,121.533654,25.014199
德方中醫診所,台北市文山區景興路39-2號,121.544843,24.997323
元品中醫診所,台北市文山區興隆路三段174號1樓,121.558576,24.998194
靖妃中醫診所,台北市敦化南路2段63巷58號1樓,121.551713,25.030881
百弘中醫診所,台北市大安區忠孝東路四段15號3樓之1,121.544383,25.041837
康禾堂中醫診所,臺北市北投區西安街二段335號,121.505747,25.120652
十方中醫診所,臺北市北投區中和街228號,121.501684,25.139198
泓欽中醫診所,澎湖縣馬公市中興路63號,119.565020,23.567036
永昌漢方中醫診所,台北市松山區南京東路5段123巷2弄25號1樓,121.561779,25.052163
安德中醫診所,台北市景福街228號1樓,121.538984,24.993779
璞真中醫診所,台北市大安區忠孝東路四段311號2樓之4,121.555802,25.041594
陳運瑩中醫診所,台北市信義路四段265巷10弄2-1號,121.553880,25.033785
福田中醫診所,台北市中山區復興北路350號二樓之一,121.543930,25.060070
彭燕婷中醫診所,台北市大安區和平東路一段171號3F-2,121.531864,25.026524
幸吉堂中醫診所,台北市中正區汀州路一段169號,121.510720,25.027248
尊生堂中醫診所,台北市松山區塔悠路47號,121.571320,25.050886
普濟中醫診所,台北市士林區福國路98-5號一樓,121.522071,25.102167
聖醫中醫診所,台北市信義區松山路245號,121.577969,25.044374
詠樂中醫診所,台北市內湖區內湖路1段373號,121.569733,25.082077
詠淳中醫診所,台北市信義區虎林街82巷31號,121.575905,25.043378
健群中醫診所,台北市北投區石牌路一段166巷116號,121.515393,25.111854
禾頤中醫診所,台北市大安區忠孝東路四段231號11樓之1,121.553118,25.041644
時英中醫診所,北市大安區辛亥路ㄧ段89號1樓,121.530998,25.021722
民生瀚威中醫診所,台北市松山區新中街25號,121.560374,25.059031
漢坤中醫診所,台北市中山區北安路458巷41弄40號,121.546098,25.078769
宏森中醫診所,臺北市信義區吳興街115 號,121.561330,25.029995
賜安中醫診所,台東市中山路354號,121.148945,22.753806
大春中醫診所,台東市中華路2段176號,121.138037,22.744482
忠興中醫診所,台東市文化街52-1號,121.150290,22.754525
劉嘉生中醫診所,台東市中華路一段329號,121.153750,22.754753
明德中醫診所,台東市中華路1段544號,121.149804,22.751051
聯安中醫診所,台東縣台東市更生路969號,121.132189,22.771853
許瑞昇中醫診所,台東市更生路342號,121.144462,22.761140
景春中醫診所,台東市中正路段222號,121.154335,22.755196
福壽堂中醫診所,台東縣池上鄉新生路134號,121.218936,23.123360
黃昱翰中醫診所,台東市博愛路362巷15號,121.147780,22.757363
壽春中醫診所,台東市新生路492號,121.139601,22.759914
雲品中醫診所,台東市博愛路470號,121.146019,22.754715
台東基督教醫院,台東市開封街350號,121.146016,22.763821
衛生福利部臺東醫院,台東市五權街1號,121.149852,22.757808
臺北榮民總醫院臺東分院,台東市更生路1000號,121.132431,22.772345
關山慈濟醫院,台東縣關山鎮和平路125之5號,121.166679,23.057220
金雞堂中醫診所,台東市寶桑路162號,121.155764,22.755375
道民中醫診所,台東市開封街449號,121.143212,22.763268
玉晟中醫診所,台東市光明路66之3號,121.153355,22.756967
全人中醫診所,台東市復興路188號,121.150285,22.752649
漢唐中醫診所,台東縣太麻里外環路80號,121.006506,22.611528
惠心堂中醫診所,台東縣鹿野鄉中正路9號,121.136266,22.912559
中和中醫診所,嘉義市民族路806、808號,120.436880,23.474640
星嘉中醫診所,嘉義市上海路167號,120.432570,23.466480
吉祥中醫診所,嘉義市東區興業東路317號,120.456574,23.469663
慈仁中醫診所,嘉義市志昇街71號,120.443353,23.469083
安和中醫診所,嘉義市西區友忠路935-1號,120.442734,23.489429
安美中醫診所,嘉義市東區博東路303號,120.457187,23.490421
康慧中醫診所,嘉義市西區興業西路124號,120.442760,23.468430
芳安中醫診所,嘉義市東區芳安路103號,120.463040,23.468430
立仁中醫診所,嘉義市東區立仁路331號,120.456954,23.462370
林臻瑋中醫診所,嘉義市民權路120-6號,120.457532,23.483554
新民中醫診所,嘉義西區市新民路703號2F,121.427282,25.044232
嘉冠中醫診所,嘉義市忠義街174號,120.447100,23.482450
榮光中醫診所,嘉義市文化路461號,120.445614,23.490286
寶雅中醫診所,嘉義市興業西路149號,120.442730,23.468090
鄭滄海中醫診所,嘉義縣民雄鄉中樂路75號,120.429766,23.556097
承德中醫診所,嘉義縣義竹鄉仁里村377號,120.241232,23.336068
里仁中醫診所,嘉義縣朴子市八德路47號,120.240731,23.462933
康寶中醫診所,嘉義縣布袋鎮太平路102號,120.162631,23.378409
信昌中醫診所,嘉義縣民雄鄉安和路55號,120.426182,23.555235
明ㄧ中醫診所,嘉義縣六腳鄉蒜南村五鄰400號,120.291113,23.490397
明琡中醫診所,嘉義縣大埔鄉大埔路自強巷22號,120.587457,23.297198
重安中醫診所,嘉義縣朴子市大同路262-1號,120.239912,23.461537
佑昇中醫診所,嘉義縣朴子市開元路382號,120.239706,23.465351
佳和中醫診所,嘉義縣朴子市大同路149號,120.242997,23.461151
聖康中醫診所,基隆市安樂區安樂路二段96號,121.725472,25.122836
同仁堂中醫診所,基隆市中山區西定路117號,121.734615,25.134183
邵秉家中醫診所,基隆市中正區義一路15號,121.745146,25.132482
逢安中醫診所,基隆市安樂區麥金路451號1樓,121.719036,25.126992
衛生福利部基隆醫院,基隆市信義區信二路268號,121.748322,25.130455
基隆長庚紀念醫院,基隆市安樂區麥金路222號,121.722368,25.120882
忠生中醫診所,基隆市中正區義二路142號,121.747039,25.133365
明和中醫診所,基隆市義一路90號,121.746436,25.133832
佳緣中醫診所,基隆市七堵區明德一路61號,121.716571,25.098585
良德堂中醫診所,基隆市仁愛區南榮路29號,121.742486,25.126797
德勳中醫診所,基隆市愛六路18號,121.747508,25.127877
百草堂中醫診所,基隆市孝二路81號2樓,121.740289,25.130172
李上知中醫診所,基隆市信義區仁一路25號1樓,121.755196,25.127794
瑞明中醫診所,基隆市東信路156-1號,121.765223,25.127939
阿蔓中醫診所,基隆市七堵區崇智街10號,121.714197,25.098282
李金澤中醫診所,基隆市仁愛區愛一路26號2樓,121.741417,25.129117
慈靉中醫診所,基隆市七堵區光明路19號,121.716708,25.098084
聯合中醫診所,基隆市仁愛區孝二路10號,121.739221,25.128066
弘春堂中醫診所,台中市后里區民生路61號,120.716800,24.308315
杏安堂中醫診所,台中市中區三民路二段133號1F,120.679965,24.143084
樂活中醫診所,台中市北屯區軍功路一段607號,120.718727,24.174838
元春堂中醫診所,台中市太平區育賢路141號,120.720996,24.157868
喜樂中醫診所,台中市南區建成路1163號,120.681698,24.127853
聯安中醫診所,台中市潭子區中山路一段179號,120.702330,24.195274
東方中醫診所,台中市沙鹿區沙田路48-5號,120.559071,24.231100
圓運動中醫診所,台中市西區中美街280號,120.660326,24.149470
德濟中醫聯合診所,台中市太平區太平路467號,120.715087,24.124741
翔甯中醫診所,台中市神岡區中山路17號1樓,120.698708,24.248674
吉祥中醫診所,台中市烏日區中山路一段363號,120.639382,24.107982
三曜中醫診所,台中市大里區東榮路655號,120.675510,24.109256
禾明中醫診所,台中市太平區樹德路235號,120.712293,24.156880
德和堂中醫診所,台中市神岡區豐洲路367號,120.705805,24.260999
太平和懿堂中醫診所,台中市太平區樹孝路39-10號,120.716238,24.150342
和懿堂中醫診所,台中市大里區立中街89號,120.697100,24.102862
有生堂中醫診所,台中市太平區中興路48號,120.717066,24.128326
益民中醫診所,台中市大里區大里路39-12號,120.688112,24.105951
興大中醫診所,台中市南區學府路96號,120.674927,24.127575
乙仁中醫診所,台中市潭子區頭張路一段43號,120.700809,24.194288
根源中醫診所,台中市霧峰區光明街66號,120.700993,24.066980
一品堂大里中醫診所,台中市大里區永大街20號,120.679959,24.105284
太極中醫診所,台中市太平區中山路三段20號,120.721512,24.149336
常益中醫診所,臺中市霧峰區中正路1171-2號1、2樓,120.699326,24.070896
昀闛中醫,台中市西屯區永福路37號,120.619682,24.182675
沐風中醫診所,台中市太平區宜昌路562號,120.715771,24.147746
長春中醫診所,台中市太平區中興東路218-1號,120.723467,24.131969
保順中醫診所,台中市西區大隆路32號,120.654784,24.155459
頂城中醫診所,台中市大里區中興路一段167-13號,120.695238,24.088574
博醫堂中醫診所,台中市南屯區大隆路115號1F,120.651317,24.156983
日安堂中醫診所,台中市烏日區仁德里信義街155號,120.639202,24.104631
華濟中醫診所,台中市烏日區溪南路一段640號,120.643055,24.076429
德彥中醫診所,台中市大里區德芳南一街30號,120.687133,24.101016
惠民中醫診所,台中市大肚區沙田路一段452-2號,120.564672,24.123477
天真中醫診所,台中市大里區中興路二段359號,120.689728,24.111194
吉美中醫診所,台中市太平區育賢路263號,120.716719,24.158788
德心中醫診所,台中市太平區樹德路98-11號,120.711826,24.153835
東方烏日中醫診所,台中市烏日區信義街86號,120.640696,24.105647
康庭中醫診所,台中市清水區北寧街78-1號,120.577258,24.272157
敦和中醫診所,台中市大雅區學府路467巷8號1樓,120.646989,24.228860
笙華中醫診所,台中市沙鹿區鎮南路二段227號,120.568573,24.223047
廣芯中醫診所,台中市北屯區松竹五路二段29號,120.711493,24.175291
聖原中醫診所,台中市大雅區上楓里民權街130號,120.669453,24.235700
鵲慈中醫診所,台中市石岡區石岡街1號,120.778031,24.275779
得祐中醫診所,台中市西屯區光明路52-49號,120.638699,24.177928
誠佑中醫診所,台中市豐原區圓環東路393號1樓,120.725286,24.245944
永生中醫診所,台中市太平區中山路二段533號,120.725084,24.149605
一品堂豐原中醫診所,台中市豐原區圓環北路2段161號,120.723568,24.260812
一品堂大甲中醫診所,台中市大甲區光明路140號,120.621429,24.344377
順心中醫診所,台中市后里區甲后路579號,120.719252,24.309287
一品堂北屯中醫診所,台中市北屯區昌平路二段33號,120.684578,24.190553
一品堂中醫診所,台中市沙鹿區四平街66號,120.560463,24.234539
全真中醫診所,台中市大里區仁化路407號,120.703245,24.095986
蕙心中醫診所,台中市豐原區中山路343號,120.715031,24.248943
達春中醫診所,台中市太平區中興路47號,120.716958,24.127979
衛生福利部豐原醫院,台中市豐原區安康路100號,120.725292,24.242706
光田綜合醫院,台中市沙鹿區沙田路117號,120.558859,24.235393
童綜合醫院,台中市梧棲區臺灣大道八段699號,120.542506,24.247285
台中慈濟醫院,台中市潭子區豐興路一段88號,120.721945,24.195685
京聖中醫診所,台中市豐原區中山路435號,120.714258,24.251477
黃柯埠中醫診所,台中市豐原區中山路552號1樓,120.714259,24.252662
正東勢仁心堂中醫診所,台中市東勢區延平里豐勢路237號1樓,120.829862,24.252234
仁合堂中醫診所,台中市清水區中山路433號 1樓,120.577043,24.273568
同濟堂中醫診所,台中市沙鹿區中山路477-5號,120.561820,24.244807
康珵中醫診所,台中市沙鹿區中正街42號,120.559869,24.236336
道然中醫診所,台中市潭子區中山路二段68號,120.704188,24.202836
保成中醫診所,台中市潭子區中山路二段383之8號,120.705105,24.213004
國泰中醫診所,台中市大雅區學府路76巷1號,120.650966,24.218219
健民中醫診所,台中市霧峰區四德路318、320號1樓,120.661068,24.056004
佳醫堂中醫診所,台中市太平區樹孝路363號,120.719359,24.155560
齊恩中醫診所,台中市太平區光興路1018號1樓,120.730549,24.111093
慶恩中醫診所,台中市太平區中山路二段319號1樓,120.730563,24.150191
益民全真中醫診所,台中市大里區益民路二段355-1號,120.683656,24.114225
同仁堂中醫診所,台中市大里區中興路一段308之14號,120.694118,24.089798
廣昕中醫診所,台中市大里區中興路一段167-7號,120.695463,24.088345
正大里區仁心堂中醫診所,台中市大里區國光路二段688號1樓,120.679357,24.114087
大里廣濟中醫診所,台中市大里區塗城路559號1樓,120.704809,24.087799
念禾中醫診所,台中市大里區益民路二段162號,120.684202,24.108180
台中公園仁心堂中醫診所,台中市中區自由路二段88-9號1樓,120.684864,24.142403
進德中醫診所,台中市東區進德路92號1樓,120.692244,24.144894
詮欣中醫診所,台中市東區十甲東路639號,120.708727,24.143464
聖欣中醫診所,台中市西區美村路一段637號,120.661855,24.136848
雅緻中醫診所,台中市西區忠明路111號,120.662413,24.161280
美村婦佑中醫診所,台中市南區美村路二段297號,120.667913,24.122506
工學北中醫診所,台中市南區工學北路65號,120.660946,24.118507
長育中醫診所,台中市西屯區西屯路三段148-12號1、2樓,120.624329,24.185486
大心中醫診所,台中市西屯區大墩20街183號2樓,,
一善中醫診所,台中市大墩路700號,120.649981,24.152443
國際慈善堂中醫診所,台中市南屯區五權西路二段48號,120.653456,24.140295
德和中醫診所,台中市后里區四村路128號,120.713475,24.305841
進安中醫診所,台中市神岡區昌平路五段390號,120.683501,24.244423
仁恩堂中醫診所,台中市大甲區蔣公路46號,120.625375,24.344940
仁安堂中醫診所,台中市清水區中山路77號,120.572284,24.261924
德安中醫聯合診所,台中市沙鹿區大同街明光巷20號,120.557959,24.237307
仁人堂中醫診所,台中市沙鹿區中山路320號,120.560706,24.239629
六福堂中醫診所,台中市潭子區中山路2段379,120.705112,24.212924
傳承中醫診所,台中市潭子區勝利十二街58號,120.701075,24.213467
耕心中醫診所,台中市大雅區民興街69號,120.648348,24.225645
姥芝瑞中醫診所,台中市烏日區中山路一段488號,120.635797,24.107254
東園中醫診所,台中市烏日區溪南路一段611號,120.643045,24.074172
李采霓中醫診所,台中市霧峰區林森路732號,120.695946,24.064384
健恩中醫診所,台中市太平區太平路258號1樓,120.719132,24.121905
回春堂中醫診所,台中市大里區中興路二段105號,120.688526,24.103197
祐生中醫聯合診所,台中市大里區大里路1號,120.689573,24.107838
仁和中醫診所,台中市大里區仁化路606號,120.699772,24.096460
同濟堂大肚中醫診所,台中市大肚區沙田路2段402號,120.547219,24.145437
順興堂中醫診所,台中市大肚區頂街里沙田路三段35號,120.543859,24.155101
佑全讚中醫診所,台中市中區台灣大道一段570號,120.676433,24.145347
坤德中醫診所,台中市北屯區北屯路66號,120.693247,24.162737
善安堂中醫診所,台中市西屯區福科路288號1樓,120.623067,24.183064
芳瑞中醫診所,台中市烏日區民族街3號,120.626003,24.109083
宏福中醫診所,台中市清水區五權路64號,120.569391,24.276726
世宏中醫診所,臺中市大里區永隆路268號1樓,120.676733,24.109023
駿發中醫診所,台中市大里區中興路2段671 巷6一2號,120.689134,24.116516
德泰中醫診所,臺中市大甲區臨江路12號,120.653803,24.379636
國根中醫診所,台中市太平區樹孝路91號,120.716989,24.151852
鼎宇中醫診所,台中市北區太原路二段98號,120.679931,24.164997
萬泰中醫診所,台中市太平區東平路487號,120.719412,24.133521
新世代中醫診所,台中市東區台中路77號1、2樓,120.683545,24.133754
建誠中醫診所,台中市烏日區中山路三段591號,120.600404,24.110499
高田中醫診所,台中市大里區塗城路802號,120.696693,24.090655
和敬堂中醫診所,台中市沙鹿區光大路256號,120.565032,24.243586
吉安堂中醫診所,台中市潭子區中山路一段298-18號,120.702635,24.194141
登錦堂中醫診所,台中市太平區溪洲西路19號,120.714087,24.141317
均澄中醫診所,台中市西區東興路三段142號1樓,120.653248,24.149439
漢林中醫診所,台中市大肚區遊園路二段257號,120.581100,24.174537
新厚生中醫診所,台中市清水區中山路129之7號,120.573530,24.265039
張仲田中醫診所,台中市東勢區豐勢路478號,120.828504,24.256941
德明中醫診所,臺南市新營區民生路45號,120.308742,23.306519
至德中醫診所,臺南市中西區西湖里和緯路五段243號1樓,120.180825,23.004892
健宏中醫聯合診所,臺南市永康區四維街2號1樓,120.253224,23.031158
育慧中醫診所,台南市永康區永康街133號,120.258210,23.023544
復華中醫診所,臺南市永康區忠孝路3號,120.239818,22.999075
佛德中醫診所,台南市仁德區中山路275號,120.260844,22.970430
平安中醫診所,臺南市學甲區自強路123號,120.178726,23.228890
光華中醫診所,台南市新市區華興街105號,120.292517,23.076792
鄭守柔中醫診所,台南市中西區慶中街2號,120.205640,22.981722
崇德民佑中醫診所,台南市東區崇德路462號,120.226708,22.974380
陳彥行中醫診所,台南市中西區健康路一段142號,120.208068,22.981463
崇學馬光中醫診所,台南市東區龍山里崇學路195號1樓,120.223640,22.980575
成功馬光中醫診所,台南市東區長榮路三段121號1、2樓,120.221647,22.994956
百合馬光中醫診所,台南市永康區六合里華二路350號1、2樓及352號1樓,120.230682,23.008505
健恩中醫診所,台南市永康區中山路116號,120.256529,23.029169
倪佩詩中醫診所,台南市新化區忠孝路118號,120.304395,23.038004
蔚武中醫診所,台南市東區崇明路502號,120.223620,22.973663
昭穎中醫診所,台南市玉井區中華路235號,120.465000,23.121441
大大中醫診所,台南市新營區新進路47號,120.321606,23.305358
至陽中醫診所,台南市永康區中華二路203號,120.237527,23.008469
天慧中醫診所,台南市永康區中正南路696號,120.235536,23.039732
邱碧瑩中醫診所,台南市北區公園路778號,120.211164,23.011310
濟安中醫診所,台南市永康區中華一路140號,120.236006,23.004367
江銘酌中醫診所,台南市永康區振興路88號,120.234804,23.012084
周佩蓉中醫診所,台南市永康區北興路222號,120.268728,23.014006
德林中醫診所,台南市新營區民治路348號,120.303189,23.305847
吉祥中醫診所,台南市永康區龍埔街472號,120.256854,23.035024
濟世中醫診所,台南市永康區永明街61號,120.259810,23.025511
安和中醫診所,台南市北區北安路一段178號,120.208726,23.017869
銘輝中醫診所,台南市新營區新進路258-2號1樓,120.317168,23.301940
傳揚中醫診所,台南市仁德區正義三街65號,120.254768,22.974229
永康回春中醫診所,台南市永康區中正南路809號,120.236196,23.040697
光復中醫診所,台南市永康區永大路二段257號,120.262095,23.008873
仁寶中醫診所,台南市麻豆區中正路18號,120.248689,23.184101
呈心中醫診所,台南市中西區金華路四段18號,120.194250,22.996666
慈祥中醫診所,台南市佳里區新生路43號,120.180438,23.161107
台南奇美醫院,台南市永康區中華路901號,120.221897,23.020606
高雄榮民總醫院臺南分院,台南市永康區復興路427號,120.240316,22.997218
衛生福利部新營醫院,台南市新營區信義街73號,120.313203,23.309153
康馥中醫診所,台南市北區文賢路234號,120.193837,23.004152
德芳中醫診所,台南市永康區富強路一段157號,120.273833,23.017196
晉陽中醫診所,台南市北區開元路343號,120.222137,23.008610
麻豆新樓醫院,台南市麻豆區小埤里苓子林20號,120.230334,23.177388
光合中醫診所,台南市新營區中正路110之8號,120.316627,23.315515
禾心堂中醫診所,台南市鹽水區武廟路22號,120.265860,23.321366
大安中醫診所,台南市佳里區延平路364號,120.178421,23.162423
上善中醫診所,台南市永康區新中街301號,120.243685,23.040181
毓元堂中醫診所,台南市南區金華路二段273號,120.191509,22.983975
金華唐中醫診所,台南市中西區金華路三段12號,120.192261,22.988571
元禾中醫診所,台南市安平區府前路二段618號,120.184184,22.993369
豐隆中醫診所,台南市安平區華平路473號,120.175141,22.992626
立春堂中醫診所,台南市善化區光復路10號,120.293603,23.129076
王相欽中醫診所,台南市永康區復國一路168號,120.246213,23.005765
祐康中醫診所,台南市永康區中華路396號,120.233408,23.009660
楊慶祥中醫診所,台南市永康區永大路二段295號,120.262549,23.009841
廣濟中醫診所,台南市永康區永大路二段173-1號,120.261587,23.006504
勝義中醫診所,台南市新市區忠孝街158號,120.294607,23.074722
宏欣中醫診所,台南市永康區中山南路27號,120.226635,23.011797
慧安中醫診所,臺南市麻豆區興中路184－1號,120.254191,23.183579
大有中醫診所,高雄市大寮區鳳林三路219號,120.399804,22.599560
佛心中醫診所,高雄市岡山區岡山路98號,120.296740,22.788208
長庚中醫診所,高雄市苓雅區青年一路117號1樓,120.310190,22.622468
蔡宜芬中醫診所,高雄市三民區明福街19號,120.312820,22.661970
高傳中醫診所,高雄市湖內區中山路二段212號之2,120.227520,22.909184
聖家中醫診所,高雄市岡山區岡山路171號,120.295981,22.791115
東霖馬光中醫診所,高雄市林園區王公路37號,120.393485,22.512896
瑞隆馬光中醫診所,高雄市前鎮區瑞隆路523號,120.327680,22.605127
鳳山馬光中醫診所,高雄市鳳山區維新路122號,120.361157,22.624509
民佑中醫診所,高雄市岡山區民有路33號,120.297940,22.792023
心香中醫診所,高雄市鳳山區八德路二段222號,120.352925,22.645738
汏樹中醫診所,高雄市大樹區中正一路375號,120.434335,22.693277
澤豐中醫診所,高雄市苓雅區和平一路96號,120.321162,22.622536
慶昌中醫診所,高雄市鳳山區五甲三路82號,120.326629,22.592375
隆好中醫診所,高雄市仁武區八德南路466號,120.340525,22.677750
茂盛中醫診所,高雄市岡山區前峰路39之8號,120.288326,22.794853
博聖中醫診所,高雄市岡山區大德一路90號,120.302109,22.796831
廣澤堂中醫診所,高雄市楠梓區三山街14號1樓,120.288531,22.711293
春豐中醫診所,高雄市三民區大豐二路456號1樓,120.335087,22.648508
廣欣中醫診所,高雄市左營區立信路85號,120.306620,22.666260
佑慈中醫診所,高雄市鳳山區誠義路165號,120.360305,22.610064
嘉品中醫診所,高雄市三民區大順二路60號1樓,120.327726,22.640716
立安中醫診所,高雄市仁武區中正路56號,120.346932,22.701191
鍾志光中醫診所,高雄市鳳山區青年路2段146-5號,120.350403,22.635206
凌雲中醫診所,高雄市仁武區中華路142號,120.349684,22.699347
恩泉中醫診所,高雄市三民區陽明路136號1樓,120.341846,22.640651
禾安中醫診所,高雄市新興區復興二路193號,120.307909,22.625978
安心堂中醫診所,高雄市鳳山區文聖街97號,120.352463,22.629311
德益中醫診所,高雄市林園區林園北路308號,120.394870,22.510639
禾欣中醫診所,高雄市鼓山區中華一路812號1樓,120.292124,22.660857
鳳山大同中醫診所,高雄市鳳山區光復路一段109.111號,120.349378,22.629141
天煌大豐中醫診所,高雄市大寮區鳳林三路506號,120.395435,22.606083
鴻仁中醫診所,高雄市橋頭區南溝路180號,120.307028,22.751493
健仁醫院中醫科,高雄市楠梓區楠陽路136號,120.328988,22.723620
建宏中醫診所,高雄市旗山區大同街21號,120.484191,22.883582
進安中醫診所,高雄市岡山區岡山路5號,120.296514,22.786211
順心中醫診所,高雄市岡山區民有路15號,120.298593,22.792075
德隆中醫診所,高雄市岡山區公園西路三段106號,120.284334,22.793707
陳瑞聰中醫診所,高雄市岡山區中山南路462號,120.299558,22.790595
蓮見中醫診所,高雄市燕巢區中民路626號,120.361244,22.793443
存德堂中醫診所,高雄市路竹區中山路1175號,120.261455,22.854825
睿安中醫診所,高雄市大寮區鳳林三路777號,120.391115,22.611979
高雄市立鳳山醫院,高雄市鳳山區經武路 42 、42-1號,120.364390,22.640988
高雄長庚紀念醫院,高雄市鳥松區大埤路123號,120.356029,22.649847
至和中醫診所,高雄市鳳山區新富路389號,120.348466,22.616326
仁祥中醫診所,高雄市岡山區大仁北路372號1樓,120.302440,22.794862
慈悅中醫診所,高雄市旗山區民權三街19號1樓,120.484337,22.891846
高美中醫診所,高雄市鼓山區美術北三路235號,120.286443,22.663755
明華凱璿中醫診所,高雄市鼓山區明華路247號,120.297922,22.663349
啟文堂中醫診所,高雄市左營區翠峰路64號,120.288325,22.672792
至謙中醫診所,高雄市左營區華夏路310號,120.297650,22.671468
安柏中醫診所,高雄市前鎮區民權二路180號2樓,120.311554,22.607129
宜璇中醫診所,高雄市鳳山區福興里自強一路41號,120.329882,22.589070
六合中醫診所,高雄市岡山區岡山路197號,120.295900,22.791609
振德中醫診所,高雄市苓雅區同慶路96號,120.320207,22.627385
一麟中醫診所,高雄市旗山區延平一路145號,120.483723,22.897452
國軍高雄總醫院左營分院,高雄市左營區軍校路553號,120.292231,22.700351
欣蓮馨中醫診所,高雄市苓雅區和平一路144巷33之3號,120.320342,22.628041
惠勝中醫診所,高雄市大寮區大寮路889號,120.419173,22.591014
明悅中醫診所,宜蘭市中山路二段303號之1,121.752352,24.753641
羅東仁濟中醫聯合診所,宜蘭縣羅東鎮興東南路1號,121.771818,24.668593
宜蘭員山醫院,宜蘭縣員山鄉尚深路91號,121.721579,24.721464
仁濟中醫聯合診所,宜蘭市文昌路147-1號,121.748714,24.758198
同仁堂中醫聯合診所,宜蘭縣羅東鎮天津路60號,121.770280,24.680541
宜康中醫診所,宜蘭市民族路338號,121.745492,24.751013
存仁堂中醫診所,宜蘭縣羅東鎮倉前路36號,121.772858,24.674465
新南大中醫診所,宜蘭市宜興路1段89號,121.755841,24.750837
慧仁中醫診所,宜蘭市光復路88號,121.753947,24.755626
新悅中醫診所,宜蘭市中山路三段286號1樓,121.754078,24.762353
臺北榮民總醫院員山分院,宜蘭市林森路1號,121.757690,24.750370
怡得心中醫診所,宜蘭縣羅東鎮中山路4段262號,121.758398,24.673168
得福中醫診所,宜蘭縣羅東鎮公正路115號,121.770494,24.678346
世揚中醫診所,宜蘭縣蘇澳鎮中山路113號,121.849613,24.595907
悅恩中醫診所,宜蘭縣頭城鎮纘祥路67-3號,121.822543,24.857603
馬光中醫診所,屏東市公園路19號,120.493026,22.673479
內埔中醫診所,屏東縣內埔鄉內田村學人路729號,120.564259,22.608052
潮州馬光中醫診所,屏東縣潮州鎮盧山路65號,120.540210,22.545873
東港馬光中醫診所,屏東縣東港鎮光復路一段268號,120.456224,22.469830
弘安堂中醫診所,屏東市廣東路173之1號,120.500145,22.675122
高點中醫診所,屏東市大武路196號,120.474545,22.658252
黃光裕中醫診所,屏東市華盛街9之1號,120.478741,22.662126
漢堂中醫診所,屏東市廣東路1382之2號,120.478520,22.686568
康霖中醫診所,屏東縣潮州鎮府洋北街90號,120.534896,22.555510
明泰中醫診所,屏東縣東港鎮中正路一段341號,120.459417,22.474927
六和堂中醫診所,屏東市廣東路43之3號,120.498648,22.670404
振德中醫診所,屏東縣南州鄉人和路52號,120.509664,22.489122
淮元中醫診所,屏東市興豐路82號,120.509127,22.680679
京祺中醫診所,屏東市民族路275之5號,120.482449,22.670672
春安堂中醫診所,屏東縣潮州鎮新生路18號,120.537820,22.547312
華富中醫診所,屏東市民族路174之1號,120.482939,22.670863
長昇中醫診所,屏東縣潮州鎮曲江街62號,120.545670,22.556322
仁光中醫診所,屏東市廣東南路260號,120.497253,22.666432
陽明中醫診所,屏東縣萬丹鄉萬壽路二段269號,120.487767,22.586933
至德中醫診所,屏東市建南路134號,120.480597,22.658756
慶安中醫診所,屏東市自由路420之6號,120.493392,22.682221
齊心中醫診所,屏東縣崁頂鄉中正路154號1樓,120.511915,22.513289
大同中醫診所,屏東市大同北路116號,120.474954,22.681933
高雄榮民總醫院屏東分院,屏東縣內埔鄉昭勝路安平1巷1號,120.600606,22.675104
屏東基督教醫院中醫科,屏東市大連路60號,120.502588,22.682041
民眾醫院中醫科,屏東市忠孝路155之6號2樓,120.487320,22.676407
濟世中醫診所,屏東市自由路379號,120.495566,22.680458
人仁中醫診所,屏東縣潮州鎮文化路136號,120.543572,22.557100
潮州黃耆中醫診所,屏東縣潮州鎮五福路18之7號,120.535900,22.545362
黃耆中醫診所,屏東縣東港鎮中正路一段332號,120.460815,22.475749
陳皮中醫診所,屏東縣東港鎮明德一路371號,120.461286,22.472850
福德中醫診所,屏東縣里港鄉永春村路42號,120.495110,22.777270
崇益中醫診所,屏東縣枋寮鄉中山路246之5號,120.593529,22.368396
張世材中醫診所,屏東縣佳冬鄉石光村中山路150號,120.562178,22.433077
琉球中醫診所,屏東縣琉球鄉三民路201號,120.384546,22.350840
順泰中醫診所,彰化市仁愛路110號,120.537287,24.069866
祥順中醫聯合診所,彰化市中民街70號,120.546987,24.084540
仁愛中醫聯合診所,彰化縣員林市中山南路36號,120.570874,23.955431
國寶中醫診所,鹿港鎮中山路305號,120.433193,24.056954
榮癸貞中醫診所,彰化市崙平南路145號,120.525420,24.063288
東方中醫診所,和美鎮仁安路13號,120.500916,24.107285
正泰成中醫診所,彰化縣溪湖鎮彰水路4段96號,120.480131,23.967699
健盛中醫診所,彰化市彰美路一段143號,120.538597,24.088028
蕭森霖中醫診所,員林市中正路96號,120.575916,23.951491
長青中醫診所,花壇鄉中正路78號,120.545117,24.027471
華良中醫診所,彰化縣彰化市自強南路48號,120.536010,24.088287
仁安堂中醫診所,彰化市天祥路247號,120.533466,24.063101
賴鵬飛中醫診所,和美鎮山犁里鹿和路6段371號,120.495301,24.108899
三合貴中醫診所,員林市新義街326號,120.567756,23.963467
詠春中醫診所,彰化市東民街67號,120.545502,24.076338
謝天中醫診所,彰化縣溪湖鎮中興路113號,120.471906,23.955044
寶田中醫診所,北斗鎮中華路260號,120.522193,23.873155
建安中醫診所,員林市中正路299號,120.573600,23.955741
天水堂中醫診所,和美鎮彰美路六段40號,120.497812,24.113129
彰化鹿港基督教醫院,彰化縣鹿港鎮中正路480號,120.438211,24.060379
彰化基督教醫院,彰化市南校街135號,120.544461,24.071490
東宜中醫診所,彰化市彰南路一段33號,120.566461,24.088304
厚德中醫診所,伸港鄉新港路78號,120.487474,24.143266
宏安中醫診所,彰化縣和美鎮中正路156號,120.495101,24.113493
上安中醫診所,彰化市中山路2段636號,120.545654,24.081389
勢登中醫診所,北斗鎮斗苑路一段94號,120.526106,23.872429
岐黃中醫診所,溪湖鎮福安路122號,120.477700,23.961283
信義中醫診所,彰化市天祥路243巷10號,120.533762,24.063054
昌德中醫診所,彰化縣秀水鄉福安村中山路529號,120.496835,24.032719
陳宜見中醫診所,彰化市辭修路182-1號,120.537676,24.085239
延安中醫診所,彰化市民生路219號,120.542652,24.079922
仲慶中醫診所,彰化縣埤頭鄉永豐村永安街64號,120.459194,23.895375
民安中醫診所,溪湖鎮西環路217號,120.477296,23.957350
蘭平中醫診所,員林市南平街139號,120.564755,23.965734
一品堂中醫診所,和美鎮永樂路63號,120.495041,24.114875
杏林堂中醫診所,溪湖鎮光平里彰水路三段383號,120.479975,23.961822
佳仁堂中醫診所,花壇鄉中山路2段60號,120.539193,24.026869
一品堂鹿港中醫診所,鹿港鎮中正路422號,120.438546,24.059916
品豪中醫診所,線西鄉沿海路一段812-1號,120.462970,24.133527
寶山中醫診所,彰化縣伸港鄉大同村大同9街137號,120.493365,24.151346
彰化秀傳紀念醫院,彰化市中山路一段542號,120.537508,24.064786
員榮醫院員生院區,員林市莒光路359號,120.566404,23.959250
永生中醫診所,彰化市中正路一段327號,120.545091,24.083022
王耀賢中醫診所,彰化市彰美路一段110巷103-5號,120.541741,24.089034
神農中醫診所,員林市中正路400巷13號,120.573279,23.957659
統銓中醫診所,員林市正興街368號,120.572343,23.960000
德桂中醫診所,二林鎮南安路30號,120.374360,23.898467
順武堂中醫診所,二林鎮文華一街21號,120.372034,23.901959
漢銘基督教醫院,彰化縣彰化市中山路一段366號,120.535784,24.061299
衛生福利部彰化醫院,彰化縣埔心鄉中正路二段80號,120.527299,23.950225
常春醫院,彰化縣員林市員集路二段501號,120.575194,23.947735
泰安中醫診所,彰化縣秀水鄉彰水路二段657號,120.497652,24.031942
陳增智中醫診所,彰化縣伸港鄉忠孝路25號,120.485936,24.148527
文禾中醫診所,彰化縣鹿港鎮復興路374號,120.437031,24.058108
皇誠中醫診所,彰化市和調里工校街25號1樓,120.555924,24.083670
冠頤中醫診所,彰化市三民路257號,120.543679,24.085808
陽明中醫診所,鹿港鎮玉順里中山路402號,120.431555,24.058865
安美中醫診所,新北市三重區文化北路97號,121.498152,25.068128
靈群閣中醫診所,新北市板橋區裕民街56巷3號1樓,121.461213,25.028835
保安堂中醫診所,新北市三重區正義北路47號,121.497496,25.063980
軒林中醫診所,新北市三重區三和路四段217號,121.481530,25.079729
龍安中醫診所,新北市三重區仁愛街680號,121.481800,25.080290
忠孝龍安中醫診所,新北市三重區忠孝路2段53號,121.485326,25.070843
天祐中醫診所,新北市板橋區三民路二段119號,121.479337,25.015713
新北市立土城醫院,新北市土城區金城路二段6號,121.448730,24.976437
安慶中醫診所,新北市新店區安康路三段51號1樓,121.492634,24.952421
三重養生堂中醫診所,新北市三重區龍門路28號,121.495428,25.072095
三元中醫診所,新北市中和區中興街202巷16-1號1樓,121.498946,24.989940
大漢中醫診所,新北市汐止區忠孝東路212號1樓,121.662105,25.066488
大新中醫診所,新北市汐止區樟樹一路141巷1號1樓,121.642208,25.066231
正五華中醫診所,新北市三重區溪尾街121號,121.489627,25.079100
林口悅兒親子中醫診所,新北市林口區文化二路一段392號1樓,121.375415,25.077451
安康中醫診所,新北市新店區安康路二段175號,121.509738,24.959197
秀峰中醫診所,新北市汐止區新台五路2段9號,121.662200,25.066109
土城建宏中醫診所,新北市土城區中央路一點260-2號1樓,121.444016,24.984085
中和健宏中醫聯合診所,新北市中和區景新街293號及295巷1號1樓,121.512530,24.990417
鴻昇中醫診所,新北市蘆洲區復興路106號,121.476003,25.087085
永和健生堂中醫診所,新北市永和區仁愛路218號,121.508905,25.012128
康欣中醫診所,新北市三重區中正北路79號,121.489936,25.063182
漢昌中醫診所,新北市樹林區保安街一段315號,121.417861,24.997993
健福中醫診所,新北市板橋區三民路一段54，56號,121.479066,25.018795
惟康中醫診所,新北市三重區長榮路8號1樓,121.500066,25.068579
榮德中醫診所,新北市板橋區懷德街131號1樓,121.479174,25.030529
新莊易元堂中醫診所,新北市新莊區幸福路680號1樓,121.450613,25.049288
板橋新生堂中醫診所,新北市板橋區文化路一段188巷17號1樓,121.466786,25.019241
從容中醫診所,新北市永和區中山路一段202號1樓,121.508770,25.008766
禾生堂中醫診所,新北市深坑區北深路二段184號,121.614110,25.002310
舞鶴中醫診所,新北市新莊區新泰路124號1樓,121.448130,25.036662
潤宇堂中醫診所,新北市板橋區重慶路175號,121.462734,25.002571
璟欣中醫診所,新北市三重區三和路四段199號,121.482132,25.079377
又一春中醫診所,新北市新莊區新泰路288號1樓,121.445742,25.040683
祥同中醫診所,新北市永和區竹林路150、152號,121.520919,25.008025
聖和中醫診所,新北市土城區廣興街28、30號,121.453390,24.991233
慶竹中醫診所,新北市三重區五華街178號1樓,121.488878,25.086207
靖林中醫診所,新北市永和區中正路718號,121.515885,25.010148
聖恩中醫診所,新北市板橋區陽明街126號1樓,121.463793,25.023745
尊生堂中醫診所,新北市新莊區幸福路81號,121.456729,25.049322
永福中醫診所,新北市新莊區民安西路67號,121.427383,25.020106
妍喜中醫診所,新北市中和區景平路335號1樓,121.505640,24.993234
妙吉祥中醫診所,新北市林口區仁愛路2段269號2樓之1,121.373384,25.077445
秀景中醫診所,新北市中和區成功路105號,121.526045,24.991364
遠東中醫診所,新北市板橋區漢生東路335號,121.472094,25.008088
祥寧中醫診所,新北市永和區中興街104、106號,121.519178,25.012480
廣緣堂中醫診所,新北市汐止區明峰街132號,121.629926,25.070913
健榮中醫診所,新北市汐止區康寧街487號1樓,121.632373,25.068518
泰源中醫診所,新北市板橋區四川路一段98號,121.459680,25.004852
易安中醫診所,新北市三峽區中華路51號,121.372525,24.930727
長駥堂中醫診所,新北市立三重區力行路二段180號,121.483169,25.077238
仁得中醫診所,新北市板橋區民權路258之7號1樓,121.457952,25.015256
星光中醫診所,新北市泰山區明志路一段81號,121.433595,25.064399
大順中醫診所,新北市五股區成泰路二段196號,121.438866,25.084907
康乃馨中醫診所,新北市中和區中正路137號,121.499422,24.993445
仁心中醫診所,新北市板橋區北門街42-3號,121.456909,25.011215
慶安中醫診所,新北市淡水區中山路143號,121.440631,25.171807
宏昌中醫診所,新北市板橋區新海路3號,121.462554,25.020453
聯生中醫診所,新北市林口區三民路108號1樓,121.360468,25.070398
人和中醫診所,新北市板橋區溪北路48號,121.427368,24.989972
林寶華中醫診所,新北市三重區中正北路218號1樓,121.482215,25.067537
周中醫診所,新北市五股區成泰路二段182號,121.438629,25.084517
健宏中醫診所,新北市新店區中央里中央路198號,121.530597,24.974523
延和中醫診所,新北市土城區延和路127號,121.468744,24.990523
吉安中醫診所,新北市板橋區篤行路三段78號1樓,121.426542,24.985150
健祐中醫診所,新北市永和區竹林路173號,121.520591,25.009948
裕安中醫診所,新北市板橋區中山路2段487號,121.482360,25.020883
宜庭中醫診所,新北市永和區永貞路439號1樓,121.506730,25.009898
泰和中醫診所,新北市新莊區公園路18號1樓,121.448344,25.039007
正峰中醫診所,新北市鶯歌區光明街169號一樓171號一樓,121.343909,24.955704
厚德中醫診所,新北市樹林區中正路851號,121.408941,25.017804
岐黃中醫診所,新北市新莊區復興路二段150號,121.457739,25.044271
賀元中醫聯合診所,新北市樹林區中山路一段158號,121.422169,24.989528
福康中醫診所,新北市樹林區中山路一段216號,121.421169,24.987870
家福中醫診所,新北市板橋區雙十路三段43號1樓,121.470467,25.031597
頌和中醫診所,新北市中和區景平路666號1樓,121.497452,25.000782
澄品中醫診所,新北市中和區泰和街2號,121.499966,25.001362
臻觀中醫診所,新北市永和區永貞路8號,121.520796,25.007431
品宣中醫診所,新北市新店區北新路三段145號2樓,121.541141,24.983252
元新中醫診所,新北市永和區福和路145號3樓,121.520694,25.007656
品妍中醫診所,新北市新莊區幸福路672號2樓,121.450919,25.049296
同仁堂中醫診所,新北市蘆洲區信義路297號,121.478511,25.085971
三重同仁堂中醫診所,新北市三重區忠孝路二段99號,121.484089,25.070005
國華中醫診所,新北市新店區北新路3段86號,121.542019,24.980774
北新中醫診所,新北市新店區北宜路一段35號,121.538411,24.957628
彤發中醫診所,新北市新莊區龍安路1之1號1樓,121.414441,25.022932
超群中醫診所,新北市新莊區中正路321號,121.447737,25.035011
土城明師中醫聯合診所,新北市土城區中正路一號1-2樓,121.442308,24.975110
世峰中醫診所,新北市永和區豫溪街50號,121.515863,25.009833
泉安堂中醫診所,新北市永和區竹林路4號,121.516203,25.014844
景新中醫診所,新北市中和區景新街448號,121.513262,24.987942
詠德中醫診所,新北市中和區中正路47號1樓,121.501908,24.993340
德睿中醫診所,新北市板橋區華興街62號,121.457672,25.004928
聯安中醫診所,新北市新莊區中港路240號,121.453990,25.043209
昇源中醫診所,新北市新莊區化成路265號,121.466115,25.054075
明儒中醫診所,新北市中和區大仁街19巷3號1樓,121.517478,24.993155
三德中醫診所,新北市新莊區復興路二段41號,121.454586,25.044191
康博中醫診所,新北市中和區新生街283號1樓,121.483830,24.997644
真如中醫診所,新北市三重區文化南路特8號,121.500215,25.062532
國耀中醫診所,新北市中和南山路166號,,
全泰中醫診所,新北市板橋區中山路2段78號1樓,121.474616,25.016002
百昌堂中醫診所,新北市三重區自強路二段一號,121.490494,25.068850
橘泉中醫診所,新北市板橋區四維路179-1號,121.464312,25.026537
新生堂中醫診所,新北市中和區新生街142號,121.483523,25.000890
鈺唐中醫診所,新北市樹林區後站街3巷14號,121.423430,24.990507
薇晶中醫診所,新北市板橋區民生路三段83號1樓,121.466809,25.024412
麗景中醫診所,新北市新莊區幸福路66號,121.457187,25.049515
永和易元堂中醫診所,新北市永和區中正路62號,121.513467,24.994772
太乙中醫診所,新北市板橋區溪北路74號,121.428043,24.989571
國慶中醫診所,新北市鶯歌區國慶街114號,121.350489,24.954018
國光中醫診所,新北市板橋區國光路157號,121.459878,25.018298
三大中醫診所,新北市中和區景平路452號,121.506107,24.993583
仁合中醫診所,新北市三峽區文化路112號,121.371283,24.936253
啟新中醫診所,新北市蘆洲區中正路197號1樓,121.468470,25.085792
祐新中醫診所,新北市板橋區文化路1段306號1、2樓,121.467628,25.021871
回春中醫診所,新北市板橋區國光路17號,121.456811,25.017531
陳逸德中醫診所,新北市三重區中央南路2號,121.501318,25.063255
賢明中醫診所,新北市三峽區文化路46號,121.372872,24.936207
元津堂中醫診所,新北市三峽區民生街146巷19號,121.372193,24.935434
衛生福利部臺北醫院,新北市新莊區思源路127號,121.459622,25.043240
禪心中醫診所,新北市新店區中興路三段221之一號,121.543212,24.982648
時珍中醫診所,新北市泰山區明志路三段147號1，2樓,121.424988,25.040023
神農中醫診所,新北市新莊區新泰路342號,121.444851,25.042403
唯其中醫診所,新北市汐止區建成路59巷63號1樓,121.660906,25.072265
衛生福利部樂生療養院,新北市新莊區中正路794號,121.409851,25.021622
行天宮恩主公醫院,新北市三峽區中山路198號,121.363512,24.937048
長榮中醫診所,新北市蘆洲區長榮路55號,121.462473,25.083213
德昇中醫診所,新北市板橋區中正路37號1樓、B1,121.456168,25.013180
施丞修中醫診所,新北市板橋區中山路362號,121.481707,25.020061
坤儒中醫診所,新北市板橋區陽明街77號,121.464059,25.022998
康宸中醫診所,新北市板橋區南門街43號1、2、3樓,121.457320,25.008590
一心中醫診所,新北市板橋區懷德街117號1樓,121.478711,25.031213
江翠中醫診所,新北市板橋區雙十路三段3號,121.471939,25.029983
鼎超中醫診所,新北市板橋區雙十路二段47巷8弄16號1樓,121.474411,25.026025
郭中醫診所,新北市板橋區南雅西路二段182號,121.451603,25.014156
老記保壽堂中醫診所,新北市板橋區龍興街16號,121.442909,24.999903
仲德中醫診所,新北市板橋區文聖街157號,121.478737,25.027767
東芳榮妹中醫診所,新北市板橋區貴興路82號,121.456258,25.002872
六合堂中醫診所,新北市板橋區中正路332－4號1樓,121.454372,25.022438
百善堂中醫診所,新北市板橋區新海路344號,121.460164,25.024587
六安堂中醫診所,新北市板橋區忠孝路39號,121.461107,25.002116
御品堂中醫診所,新北市板橋區長安街333號1樓,121.474547,25.012267
益成中醫診所,新北市三重區三和路二段77號,121.499950,25.068137
六福堂中醫診所,新北市三重區正義北路211號,121.496163,25.068563
松鶴中醫診所,新北市三重區過圳街7巷36號1樓,121.490346,25.059846
健安堂中醫診所,新北市三重區重新路一段72號,121.501996,25.063590
健安中醫診所,新北市三重區碧華街141號1樓,121.486380,25.082066
仁安堂中醫診所,新北市三重區三和路四段133號,121.484654,25.077984
三重天慕堂中醫診所,新北市三重區中正南路165號,121.493661,25.056038
俊發中醫診所,新北市永和區復興街31號,121.516332,25.013142
永樂中醫診所,新北市永和區中山路一段14號,121.514053,25.010549
漢唐中醫診所,新北市中和區捷運路125號,121.507305,24.990435
雋恩中醫診所,新北市中和區景德街30號,121.518236,24.991450
元宇中醫診所,新北市中和區新生街241號,121.483887,24.998895
詹錫彥中醫診所,新北市中和區宜安路159號,121.508904,24.998843
富邦中醫診所,新北市中和區忠孝街85號1樓,121.512034,24.985351
揚銘中醫診所,新北市中和區圓通路234號,121.494889,24.992766
潤泰中醫診所,新北市中和區員山路409號1樓、411號1樓,121.481007,25.003198
景安現代中醫診所,新北市中和區景平路558號1樓,121.502110,24.995149
沐心中醫診所,新北市中和區興南路一段159號1樓,121.508593,24.987045
明芯中醫診所,新北市中和區景平路561號,121.498171,24.999752
必安中醫診所,新北市新店區安德街75號,121.510192,24.961416
賀安中醫診所,新北市新莊區龍安路495號1樓,121.425931,25.018257
長青中醫診所,新北市新莊區民安西路十三號一樓,121.426768,25.021612
佑德中醫診所,新北市新莊區八德街137號1樓,121.423817,25.020161
美恩中醫診所,新北市新莊區幸福路46號,121.457722,25.049533
御漢堂中醫診所,新北市新莊區中平路267號1樓,121.444709,25.049733
聯合中醫診所,新北市新莊區景德路384號,121.446077,25.033608
宏泰中醫診所,新北市新莊區自立街112號1樓,121.455264,25.045373
幸福中醫診所,新北市新莊區幸福路552號,121.454901,25.049423
至善堂中醫診所,新北市新莊區後港一路24號,121.425220,25.026031
宏嘉中醫診所,新北市新莊區幸福路815號1樓,121.445694,25.048995
澄杏中醫診所,新北市新莊區幸福東路133號,121.461010,25.049346
靜好中醫診所,新北市新莊區化成路217號1樓,121.466018,25.052009
瑞和中醫診所,新北市新莊區中平路363號1樓,121.444655,25.051658
新悅中醫診所,新北市淡水區英專路21巷30號1樓,121.444509,25.169917
杞子中醫診所,新北市汐止區福德二路120號1樓,121.631334,25.065512
土城仁安堂中醫診所,新北市土城區中央路二段207號,121.441732,24.974381
合安中醫診所,新北市土城區延吉街119號,121.471099,24.986509
大祐中醫診所,新北市蘆洲區中正路47號,121.470920,25.082514
芊瓏中醫診所,新北市蘆洲區復興路74號,121.474998,25.086527
六善堂中醫診所,新北市蘆洲區中華街7號,121.463911,25.081668
泰明中醫診所,新北市泰山區明志路2段379號1樓,121.425102,25.043806
林口真如中醫診所,新北市林口區文化三路一段571號,121.370474,25.076416
懷臨堂中醫診所,新北市林口區公園路193號,121.371917,25.072375
德心中醫診所,新北市林口區文化三路一段394巷2號1樓,121.365951,25.072945
吉元堂中醫診所,新北市金山區忠孝一路26號1樓,121.638368,25.219692
玉生堂中醫診所,新北市土城區學府路一段155巷5號一樓,121.453597,24.985712
裕芳中醫診所,新北市板橋區貴興路38號,121.457312,25.003596
康健堂中醫診所,新北市新莊市新泰路307號1樓,121.445207,25.041211
有慶中醫診所,新北市新莊區民安西路311號1樓之1,121.427274,25.011406
建全中醫診所,新北市板橋區重慶路279號,121.463594,24.999454
大宏中醫診所,新北市瑞芳區明燈路三段71號1樓,121.805442,25.108191
宏安中醫診所,新北市三重區自強路一段254號,121.492577,25.067453
立安中醫診所,新北市中和區興南路一段119號,121.509200,24.987846
深耕中醫診所,新北市深坑區深坑街3巷5號,121.616767,25.002600
渼林中醫診所,新北市土城區清水路179號1樓,121.459489,24.981614
弘新中醫診所,新北市土城區裕民路280號3樓,121.455422,24.982005
清水建全中醫診所,新北市土城區明德路一段59號,121.465342,24.984584
長榮中醫診所,新北市蘆洲區長榮路55號,121.462473,25.083213
昌隆中醫診所,新北市新莊區幸福路64巷4弄3號1樓,121.457267,25.050122
聖昇中醫診所,新北市永和區中正路109號2樓,121.515585,24.997563
孫中醫診所,新北市鶯歌區國慶街154號,121.350958,24.953208
漢唐中醫診所,新北市中和區捷運路125號1樓,121.507305,24.990435
慈愛中醫診所,新北市樹林區日新街52號,121.422451,24.991826
元慶中醫診所,新北市中和區保健路27之4號,121.508562,24.997875
慈恩中醫診所(三峽),新北市三峽區文化路70號,121.372234,24.936223
九和堂中醫診所,新北市新莊區雙鳳路41號,121.416082,25.027166
鴻林中醫診所,新北市板橋區成都街37號一摟,121.461122,25.005002
新昌中醫診所,新北市板橋區府中路24號2樓,121.459750,25.009716
佑康中醫診所,新北市樹林區學成路478號1樓,121.379613,24.945025
林口真如中醫診所,新北市林口區文化三路一段571號,121.370474,25.076416
得康中醫,新北市蘆洲區中原路41號1樓,121.459584,25.082397
康源中醫診所,新北市永和區得和路351號,121.524180,24.999542
秀善中醫診所,新竹市東區西門街223號,120.965332,24.802657
慶仁眼科內科中醫診所,新竹市東區中華路二段381號,120.973463,24.803016
真澄中醫診所,新竹市東區復中里民權路169號,120.974024,24.809265
保順中醫診所,新竹市東區光復路一段181號,121.022026,24.781583
琉璃光中醫診所,新竹市東區南大路93-1號,120.976178,24.801532
惠生中醫診所,新竹市北區北新街125號,120.955732,24.803146
詹台杰中醫診所,新竹市東區中央路182號2樓,120.974014,24.808596
和杏中醫診所,新竹市東區光復路一段561號,121.012057,24.785423
上明中醫診所,新竹市東區光復路一段266號,121.020518,24.782171
仁和堂中醫診所,新竹市東區經國路一段702號,120.973153,24.814374
蔡宗璟中醫診所,新竹市中正路72號,120.969947,24.805088
慶暉中醫診所,新竹市東區食品路181號,120.975728,24.796664
聖堯中醫診所,新竹市北區武陵路65號,120.965315,24.818068
仁愛中醫診所,新竹市林森路310號,120.961319,24.797281
常榮中醫診所,新竹市中山路273號,120.960758,24.801466
常春中醫診所,新竹市東區南大路362號,120.970290,24.798100
元安中醫診所,新竹市東區食品路448號,120.967177,24.793786
陳彥吉中醫診所,新竹市北區四維路36號,120.962768,24.798641
同安堂中醫診所,新竹市北區武陵路92號,120.966834,24.818169
大同中醫診所,新竹市東區民族路255號,120.981725,24.810829
科理中醫診所,新竹市東區東南街140號,120.974329,24.797619
李如英中醫診所,新竹市東區中山路32號,,
漢華中醫診所,新竹市東區南大路110之1號,120.976159,24.801767
李思慧中醫診所,新竹市光復路一段256號,121.020735,24.782117
晉業中醫診所,新竹市東區新莊街13號,121.015491,24.784652
宜森中醫診所,新竹市北區金竹路126號1樓,120.972460,24.823912
仁濟中醫診所,新竹市東區建功一路91號,120.995892,24.801679
騏佑中醫診所,新竹市西大路69號,120.971161,24.795772
順良中醫診所,新竹市北區湳雅街2之2號,120.969605,24.816915
一品堂中醫診所,新竹市北區中華路三段16號,120.962926,24.797242
聯樺中醫診所,新竹市東區建中一路10號,120.994018,24.800913
嘉心堂中醫診所,新竹市北區湳雅街176號,120.974665,24.821041
劉中醫診所,新竹市東區光復路一段314號,121.019175,24.782702
華信中醫診所,新竹市東區中央路301號,120.978421,24.810682
華陽中醫診所,新竹市東區建功一路133號,120.993948,24.802555
丞太中醫診所,新竹市東區民權路49號,120.976234,24.806400
進安中醫診所,新竹市東區中華路二段574號,120.967787,24.799762
陳俊麟中醫診所,新竹市東區東光路45號,120.986825,24.802593
益元堂中醫診所,新竹市東區文化街78號,120.970162,24.807852
恩慈經典中醫診所,新竹市東區光復路一段360-15號,121.017083,24.783723
新桐中醫診所,新竹市民族路37號一樓,120.974109,24.806076
長青中醫診所,新竹市中正路71號1樓、2樓,120.969562,24.805161
薇竹中醫診所,新竹市新源街138號一樓,120.993348,24.802527
恆安堂中醫診所,新竹市東區勝利路51號,120.968579,24.800664
勻品中醫診所,新竹市東區寺前里南大路372號1樓,120.970104,24.797986
祥發中醫診所,新竹市東區光復路一段261號,121.019976,24.782093
大興中醫診所,新竹市北區光田里水田街192號,120.968683,24.816144
林金龍中醫診所,新竹市北區北門街47號,120.965907,24.805978
康宸中醫診所,新竹市東區經國路二段378號,120.982262,24.814990
林淑玲中醫診所,新竹市北區竹光路149號,120.958515,24.812332
張菊元中醫診所,新竹市北區湳雅街136號,120.973384,24.820035
樺葳中醫診所,新竹市北區水田街174號,120.968379,24.815908
萬安內科痔科中醫診所,新竹市東區大同路8號,120.970821,24.802847
厚生中醫診所,新竹市東區中山路140號,,
玄唐中醫診所,新竹縣竹北市博愛街418號1樓,121.009411,24.837468
均安中醫診所,新竹縣新豐鄉泰安街82號,120.993654,24.870563
順安中醫診所,竹北市博愛街198號,121.006217,24.832955
宥銨中醫診所,新竹縣竹北市福興一路28號,121.004669,24.825585
天安中醫診所,竹北市博愛街379號,121.008664,24.836684
晉醫堂中醫診所,新竹縣竹北市莊敬南路75號ㄧ樓,121.020968,24.817674
長安中醫診所,新豐鄉新興路237號,120.996567,24.870211
懷恩中醫診所,新竹縣關西鎮中興路2-3號2樓,121.177131,24.791929
上上中醫診所,新竹縣新豐鄉建興路一段74號,120.995465,24.871388
仁人中醫診所,新竹縣竹北市華興街150號,121.002742,24.840236
保安中醫診所,湖口鄉中正路1段141號,121.047002,24.901150
盧廷圳中醫診所,新竹縣湖口鄉忠孝路26號,121.046411,24.900648
禪中醫診所,竹北市福興東路二段162號,121.028783,24.814129
臺北榮民總醫院新竹分院,新竹縣竹東鎮中豐路1段81號,121.099575,24.722702
祐祥中醫診所,新竹縣竹東鎮東寧路3段175號,121.085198,24.740686
一品堂竹北中醫診所,竹北市中正東路143號,121.016391,24.834980
中國醫大新竹分院,竹北市興隆路一段199號,121.001988,24.824037
和新中醫診所,新竹縣竹東鎮中正路111號,121.092798,24.732703
上明中醫聯合診所,新竹縣竹東鎮東林路77號,121.091279,24.737089
仁義中醫診所,竹北市成功六街57號,121.020266,24.818581
安興中醫診所,新竹縣竹北市三民路407號,121.009429,24.834377
永濟中醫診所,竹北市博愛街281號,121.007158,24.834143
光明中醫診所,新竹縣竹北市復興三路二段70號,121.035224,24.808924
天佑中醫診所,新竹縣竹北市縣政二路412號1、2樓,121.016816,24.828105
聖昀中醫診所,新竹縣竹北市 成功六街 255號 一樓,121.025029,24.816766
彭姵綸中醫診所,新竹縣竹北市嘉豐六路二段140號,121.026957,24.807345
誠璞中醫診所,竹北市福興東路二段156號1樓,121.028677,24.814245
照海中醫診所,新竹縣竹北市六家五路一段339號1樓,121.030801,24.806868
人文中醫診所,新竹縣竹北市勝利三街71號,121.027675,24.823135
厚德堂中醫診所,桃園市八德區介壽路964號,121.297213,24.934452
億軒中醫診所,桃園市中壢區環北路351號,121.224590,24.966120
一品堂中醫診所,桃園市平鎮區延平路二段91號1樓,121.212412,24.949313
廣仁堂中醫診所,桃園市八德區和平路11號,121.299629,24.957697
青埔悅兒親子中醫診所,桃園市大園區高鐵南路一段121號,121.211367,25.009000
悅兒親子中醫診所,桃園市龜山區文化一路10巷26號,121.370400,25.059308
仁心堂中醫診所,桃園市桃園區中山北路96號,121.303310,24.994243
廣和中醫診所,桃園市桃園區永安路300號,121.303264,24.998712
杏恩中醫診所,桃園市中壢區中美路2段150號1樓,121.220505,24.960211
澄美中醫診所,桃園市中壢區福德路64號1樓,121.258357,24.974549
永敬中醫診所,桃園市桃園區信光路87號,121.306177,25.005471
中壢同慶中醫診所,桃園市中壢區中正路357號1至3樓,121.216426,24.955369
宜康中醫診所,桃園市中壢區忠孝路164號,121.255260,24.976454
康綸中醫診所,桃園市大園區果林路223號,,
漢醫中醫診所,桃園市桃園區復興路405號,121.302147,24.990953
同德中醫診所,桃園市中壢區龍昌路475號,121.249010,24.930782
弘安堂中醫聯合診所,桃園市中壢區莊敬路151號,121.257606,24.968212
聯生中醫診所,桃園市龜山區文昌一街 5號1樓,121.367463,25.057424
華泰中醫診所,桃園市中壢區健行路153-1號,121.227562,24.949110
鄭建祥中醫診所,桃園市桃園區國際路一段1040號,121.289745,24.985468
振興中醫診所,桃園市觀音區大觀路一段512號,121.145387,25.049655
安康中醫診所,桃園市蘆竹區南順七街27號,121.290555,25.039072
龜山文學風澤中醫診所,桃園市龜山區文學路255號,121.389590,25.040958
青埔風澤中醫診所,桃園市大園區公園路一段80號,121.210674,25.004861
龍安風澤中醫診所,桃園市桃園區龍安街157號1樓,121.279173,24.991478
站前內壢風澤中醫診所,桃園市中壢區福德路15號,121.258883,24.973544
藝文風澤中醫診所,桃園市桃園區中正路1126號,121.299068,25.015646
龜山風澤中醫診所,桃園市龜山區萬壽路二段982號,121.337357,24.995217
大業風澤中醫診所,桃園市桃園區大業路一段428號1樓,121.311854,25.014976
楊梅風澤中醫診所,桃園市楊梅區大成路106號,121.145792,24.910501
平鎮風澤中醫診所,桃園市平鎮區延平路二段65號,121.212664,24.949605
八德風澤中醫診所,桃園市八德區福國北路100號,121.295469,24.961286
埔心風澤中醫診所,桃園市楊梅區永美路334號,121.181772,24.917335
蘆山風澤中醫診所,桃園市蘆竹區中山路56-1號,121.299499,25.054504
中壢風澤中醫診所,桃園市中壢區延平路517號,121.223286,24.956133
寶山風澤中醫診所,桃園市桃園區寶山街207號,121.316320,25.012181
南崁風澤中醫診所,桃園市蘆竹區中正路355號,121.291028,25.048925
大竹風澤中醫診所,桃園市蘆竹區大竹路426-5號,121.264722,25.020731
內壢風澤中醫診所,桃園市中壢區環中東路149號,121.258810,24.964928
風澤中醫診所,桃園市桃園區中山路428號1樓,121.302789,24.992031
蕙辰中醫診所,桃園市中壢區普忠路233號,121.246619,24.960467
永康中醫診所,桃園市蘆竹區南崁路70號1樓,121.296142,25.045451
羅明江中醫診所,桃園市中壢區環北路155號1樓,121.221102,24.966722
青田中醫診所,桃園市中壢區中山路54號,121.227137,24.955366
明醫中醫診所,桃園市中壢區中山路54號,121.227137,24.955366
龍潭竹善堂中醫診所,桃園市龍潭區北龍路２７５號１樓,121.217431,24.868098
馨田中醫診所,桃園市桃園區泰昌八街23號1樓,121.292238,24.987266
仁心中醫聯合診所,桃園市龍潭區東龍路180號,121.214809,24.863523
樂山中醫診所,桃園市龜山區萬壽路二段 1088號1樓,121.334633,24.994295
德馨中醫診所,桃園市桃園區桃鶯路186-1號,121.318808,24.982555
永勝中醫診所,桃園市楊梅區四維二路139號,121.181573,24.912112
翊展中醫診所,桃園市中壢區龍岡路一段215號1樓,121.225824,24.947851
恩禾中醫診所,桃園市桃園區鎮撫街160號,121.318454,24.999223
廣欣中醫診所,桃園市龜山區文化三路68號1樓,121.362796,25.058564
成美中醫診所,桃園市平鎮區廣德街22號,121.204829,24.956330
誠泰中醫診所,桃園市中壢區中山東路四段94及96號1樓,121.256632,24.935748
文青堂中醫診所,桃園市龜山區文青二路7號1樓,121.388206,25.039424
仁愛中醫診所,桃園市桃園區中山路28號,121.312306,24.995276
震天堂中醫診所,桃園市中壢區中山東路2段29號,121.237424,24.954400
內壢仁心堂中醫診所,桃園市中壢區仁愛路11號,121.255815,24.972387
衛生福利部桃園醫院,桃園市桃園區中山路1492號,121.268092,24.977705
衛生福利部桃園醫院新屋分院,桃園市新屋區新屋村新福二路六號,121.107189,24.969856
林口長庚紀念醫院,桃園市龜山區復興街5號,121.367919,25.060298
桃園長庚紀念醫院,桃園市龜山區舊路村頂湖路123號,121.366947,25.029312
聯新國際醫院,桃園市平鎮區廣泰路77號,121.204960,24.946120
上德中醫診所,桃園市桃園區成功路二段30號,121.314943,24.993331
同安中醫診所,桃園市桃園區同安街366號,121.302482,25.017647
辰軒中醫診所,桃園市桃園區南平路302之1號2樓,121.298858,25.018550
芳禾中醫診所,桃園市桃園區成功路二段82號1樓,121.316164,24.993784
陳君隆中醫診所,桃園市中壢區莒光路27號1樓,121.238431,24.952691
松柏中醫診所,桃園市中壢區中山東路2段 187號1樓,121.240097,24.952224
仁人堂中醫診所,桃園市中壢區中山路202號1樓,121.222950,24.956634
國輝中醫診所,桃園市八德區廣豐路175號,121.299373,24.966730
仁安堂中醫診所,桃園市八德區介壽路一段811號,121.300062,24.962115
安聲中醫診所,桃園市龍潭區中正路171號,121.217067,24.866091
恩典中醫診所,桃園市龍潭區中正路312號1樓,121.217661,24.861301
恩惠中醫診所,桃園市龍潭區中正路312號1樓,121.217661,24.861301
惠鼎中醫診所,桃園市中壢區龍東路98號,121.251339,24.928906
大川中醫診所,桃園市桃園區宏昌八街136號1樓,121.287576,24.985761
方濟中醫診所,桃園市中壢區中山東路三段246號,121.250255,24.941780
真如堂中醫診所,桃園市大園區大觀路4號1樓,121.196875,25.065033
華堂中醫診所,桃園市桃園區永安路379號1樓,121.299110,25.000712
天莘中醫診所,桃園市蘆竹區南崁路336號,121.291448,25.050329
宏壽中醫診所,桃園市中壢區中山路449號,121.216404,24.956699
仁和堂中醫診所,桃園市中壢區中山東路3段111號,121.248586,24.944531
國元中醫診所,桃園市桃園區慈文路197號,121.303269,25.007767
大安中醫診所,桃園市桃園區中正路449號1樓,121.306805,25.001217
中壢竹善堂中醫診所,桃園市中壢區中央西路一段39.41.43號2樓,121.219072,24.958030
光隆中醫診所,桃園市中壢區中央西路2段39號,121.217616,24.958632
新隆中醫診所,桃園市中壢區福德路12號1、2樓,121.259073,24.973558
聖鶴堂中醫診所,桃園市中壢區榮民路１７１號１樓,121.261013,24.966391
陽明中醫診所,桃園市桃園區鎮撫街50號,121.314792,24.998021
長慶中醫診所,澎湖縣馬公市惠民一路10號,119.564729,23.565472
錦山中醫診所,澎湖縣馬公市陽明路24號,119.575518,23.572754
松安堂中醫診所,澎湖縣馬公市三多路352號,119.570581,23.577323
澄美中醫診所,台南市中西區和緯路五段191號,120.182531,23.004987
耕莘中醫診所,台南市南區新興路240號,120.192406,22.976407
澄明中醫診所,台南市東區崇學路139～1號,120.226147,22.983104
自然中醫診所,台南市南區大同路二段112巷1號,120.212383,22.979723
美德中醫醫院,台南市北區公園路661號,120.213947,23.015986
德全中醫診所,台南市東區崇德路680號,120.227307,22.967185
盈泰中醫診所,台南市關廟區中正路1023.1025號,120.326387,22.963224
仁安中醫診所,台南市東區東寧路235號,120.226636,22.990601
成功朝順中醫診所,台南市北區西門路21、23、25號,120.212926,23.018581
頤安堂中醫診所,台南市安定區港口里港口273號,120.234376,23.091170
和緯中醫診所,台南市北區和緯路二段169號,120.206721,23.011828
觀音中醫診所,台南市東區東門路三段205號,120.234934,22.977285
固本中醫診所,台南市安南區海佃路一段260號,120.191481,23.025846
朝順中醫診所,台南市北區文賢路606號,120.193948,23.008900
宸莘中醫診所,台南市安平區國平路152號,120.171064,22.988910
淯康中醫診所,台南市南區永華路一段257號,120.190614,22.988323
晨康中醫診所,台南市安南區安中路一段227號,120.205893,23.036853
台南市立醫院,台南市東區崇德路670號,120.226743,22.968534
陳金泉中醫診所,台南市中西區民族路三段266號,120.192813,23.000095
安南中醫診所,台南市安南區安中路二段166.168號,120.184032,23.047239
周良渝中醫診所,台南市安南區安和路一段170號,120.213669,23.029972
立宸中醫診所,台南市永康區北興路360號,120.270972,23.012869
韋睿宏中醫診所,台南市北區小東路345號,120.231388,22.999082
禾豐中醫診所,台南市北區北安路一段187號,120.208087,23.017904
敦品中醫診所,台南市北區西門路三段77號,120.203005,23.002330
執善中醫診所,台南市東區崇善路539號,120.229577,22.973552
漢中中醫診所,台南市北區西門路四段236號,120.208794,23.011234
衛生福利部嘉南療養院,臺南市仁德區裕忠路539號,120.241951,22.976718
吉泰中醫診所,台南市東區崇明路443號,120.224423,22.973322
慶平中醫診所,台南市安平區慶平路237號,120.177306,22.996777
德祐中醫診所,台南市北區育德路490號,120.206723,23.013722
高瑭中醫診所,台南市東區大同路二段89號,120.213426,22.978923
宏安中醫診所,台南市北區文賢路637號,120.193641,23.013461
安平中醫診所,台南市安平區永華路二段821號,120.168488,22.991213
主恩中醫診所,台南市北區開元路182號,120.220228,23.007158
翊善中醫診所,台南市永康區文化路332號,120.252849,23.015371
信華中醫診所,台南市南區金華路一段283號,120.190085,22.968112
黃于哲中醫診所,台南市南區健康路二段119號,120.194335,22.981316
章如瑛中醫診所,台南市東區怡東路46號,120.227890,22.991668
新善中醫診所,台南市東區崇善路908號,120.234621,22.964017
沐心中醫診所,台南市南區金華路二段170號,120.191472,22.979669
懷安堂中醫診所,台南市東區凱旋路33號,120.230513,22.992933
文化中醫診所,台南市東區崇明十街30號,120.220631,22.975370
參神堂中醫診所,台南市北區西門路三段189號,120.204690,23.004532
衛生福利部臺南醫院,台南市中西區中山路125號,120.209228,22.995819
衛生福利部臺南醫院新化分院,台南市新化區那拔里牧場72號,120.336408,23.062491
台南新樓醫院,台南市東區東門路一段57號,120.212807,22.989158
臺南市立安南醫院,台南市安南區長和路二段66號,120.223192,23.064232
武德中醫診所,台南市新化區中正路413號,120.308097,23.035233
尚原中醫診所,台南市仁德區中正路二段127號,120.250923,22.946548
信昌中醫診所,台南市歸仁區中山路一段481號,120.298240,22.966180
祥順中醫診所,台南市東區崇德路58號,120.217800,22.980836
唯心中醫診所,台南市東區東寧路443號,120.230290,22.989481
中鏵唐中醫診所,台南市東區中華東路三段126號,120.227112,22.978774
小森中醫診所,台南市東區裕忠路105號,120.241902,22.985765
全仁中醫診所,台南市東區崇成里崇道路20號1樓,120.226198,22.971951
榮光中醫診所,台南市南區明興路1239-1241號,120.185275,22.924350
承恩中醫診所,台南市南區夏林路7號之2,120.195181,22.985026
林律安中醫診所,台南市南區新興路470號,120.187304,22.975007
誠信中醫診所,台南市中西區忠義路二段205號,120.204365,22.997370
春元中醫診所,台南市中西區中華西路二段626號,120.186834,23.005030
世樺中醫診所,台南市北區公園路735號,120.215155,23.017462
大醫精誠中醫診所,台南市北區文賢路611號,120.193623,23.012868
艾苜中醫診所,台南市北區北安路一段239號,120.206890,23.018827
心連心中醫診所,台南市安平區國平里華平路178號,120.174871,22.988965
中義中醫診所,台南市南區金華路二段33巷40號,120.189871,22.977188
惠安中醫診所,台南市南區西門路一段551號,120.197354,22.983747
秉聖中醫診所,台南市北區西門路四段602號,120.212796,23.018450
陳天助中醫診所,台南市北區海安路三段755號,120.200267,23.012796
湯燕雪中醫診所,台南市北區和緯路三段182號,120.199275,23.011407
德州中醫診所,台南市安南區安和路一段127號,120.214079,23.028613
慶恩中醫診所,台南市中西區府前路一段182號,120.205696,22.989134
承鴻中醫診所,台南市中西區南門路159之2號,120.204426,22.986394
一安堂中醫診所,台南市中西區南門路185號之5,120.204301,22.985550
富源中醫診所,台南市仁德區中正路二段480號,120.252399,22.954249
祥元中醫診所,台南市中西區民族路三段198號,120.194451,22.999504
陳德森內傷科中醫診所,台南市東區林森路一段192號,120.216570,22.982120
王睿宏中醫診所,台南市東區長榮路二段162號,120.220185,22.989550
祥恩中醫診所,台南市安平區建平路567號,120.183550,22.994551
和氣中醫診所,台南市東區崇明路369號,120.222460,22.975328
松裕堂中醫診所,花蓮市中正路637號,121.610333,23.979427
萬順外科中醫診所,花蓮市中山路76號,121.611183,23.974912
江瑞庭中醫診所,花蓮市富吉路59號,121.597404,23.994810
隆安中醫診所,花蓮市中山路523號,121.602388,23.985697
仁濟中醫診所,花蓮市中正路43號,121.595341,23.969512
德恩中醫診所,花蓮市和平路472號,121.601546,23.976621
杏林中醫診所,花蓮縣玉里鎮光復路170號,121.312804,23.331498
國軍花蓮總醫院,花蓮縣新城鄉嘉里村嘉里路163號,121.607400,24.024429
信欣中醫診所,花蓮市民國路26號,121.605157,23.978393
至誠中醫診所,花蓮市富國路142號,121.593947,23.989564
嘉德中醫診所,花蓮縣新城鄉嘉里村福德路1號,121.610448,24.016092
林政昇中醫診所,花蓮縣吉安鄉中華路2段178號,121.583774,23.973859
良美中醫診所,花蓮市富吉路3號,121.598727,23.994236
大新中醫診所,花蓮市中正路142-1號,121.597525,23.970597
保生中醫診所,花蓮市建國路2段288號,121.577657,23.992124
大正中醫診所,花蓮縣壽豐鄉豐山村中山路146號,121.495120,23.847995
漢華中醫診所,花蓮縣吉安鄉中山路三段123號,121.573695,23.976119
樂田中醫診所,花蓮縣吉安鄉建國路一段231號,121.588245,23.986834
原相中醫診所,花蓮市和平路332之2號,121.603886,23.973675
鳳林中醫診所,花蓮縣鳳林鎮中正路二段185號,121.449558,23.748529
林秉龍中醫,花蓮縣新城鄉北埔村民族路46號,121.603399,24.032599
大和中醫診所,花蓮縣光復鄉中正路1段149號,121.425693,23.665248
原德中醫診所,頭份市蟠桃里德義路102號,120.897267,24.691445
健康中醫診所,頭份市自強路2段53號,120.899632,24.684297
華杏中醫診所,公館鄉館東村大同路142號1樓,120.828204,24.501743
慈恩中醫診所,後龍鎮中山路104號,120.790813,24.614331
裕康中醫診所,公館鄉館東村14鄰大同路195號,120.828292,24.502796
京鼎中醫聯合診所,苗栗市中山路662號,120.818558,24.556395
康福中醫診所,頭份市和平里和平路43號,120.907599,24.684169
京湛中醫診所,竹南鎮博愛街154號,120.875298,24.687010
正中華中醫診所,頭份市中華路1121號,120.910343,24.687529
豐順中醫診所,頭份市建國路2段160號,120.902874,24.696411
保安堂中醫診所,頭份市中正路196號,120.910194,24.686447
晨唐中醫診所,苗栗市英才路199號,120.820453,24.571718
仁壽中醫診所,後龍鎮中龍街184號,120.787111,24.613861
慈祐醫院中醫部,竹南鎮民治街17號,120.878639,24.684770
保生堂中醫診所,苗栗市大同路130號,120.815285,24.551760
郭豐演中醫診所,苗栗市建功里府前路81號,120.819590,24.561613
林東宏中醫診所,竹南鎮光復路42-1號,120.879136,24.684301
百漢中醫診所,苑裡鎮新興路31-12號,120.652564,24.440384
尚德中醫診所,苗栗市府東路61號1樓,120.821720,24.563535
南海中醫診所,苗栗市中山路789號,120.815918,24.555047
吳家熙中醫診所,苗栗市中山路814號,120.815256,24.555185
中山中醫診所,苗栗市為公路175號,120.827128,24.570902
康然中醫診所,苗栗市中正路295號1樓,120.823828,24.563123
科學中醫診所,頭份市中華路921號 新增,120.905686,24.683657
慶福堂中醫診所,頭份市中山路60號,120.907790,24.683540
彭賢正中醫診所,後龍鎮大庄里中山路202號,120.793121,24.613061
聖祐中醫診所,三灣鄉三灣村民權街6號,120.956033,24.654211
卓家老舖中醫診所,金門縣金沙鎮后浦頭3號,118.414713,24.487062
大方中醫診所,金門縣金城鎮環島北路一段26號,118.321757,24.440176
豐元中醫診所,金門縣金寧鄉仁愛新村139號,,
張中醫診所,虎尾鎮中山路25號1樓,120.435132,23.706098
文心中醫診所,西螺鎮福興路165-2號,120.460562,23.799441
弘恩中醫診所,雲林縣斗六市中華路288號1樓,120.549069,23.708478
至誠堂中醫診所,北港鎮南安里光明路37號,120.302993,23.566281
光晟中醫診所,虎尾鎮公安里林森路1段360巷7-2號,120.435784,23.712077
大成中醫聯合診所,斗六市鎮東路117號,120.552542,23.708720
源茂中醫診所,北港鎮大同里大同路120號,120.303334,23.571155
建成中醫診所,西螺鎮光華里延平路400號,120.456729,23.800829
東方虎尾中醫診所,虎尾鎮中正路329號,120.429473,23.704060
國際中醫診所,斗南鎮民權路31號,120.478718,23.673795
明德堂中醫診所,虎尾鎮民族路23-3號,120.440556,23.711459
南光中醫診所,虎尾鎮新生路62-1號1樓,120.439469,23.708924
至善中醫診所,虎尾鎮新興里光復路303號,120.440381,23.709759
國賢中醫診所,雲林縣斗六市明德北路3段355號,120.529420,23.704663
元氣堂中醫診所,虎尾鎮東明路126號,120.442055,23.713664
扶原中醫診所,崙背鄉大業路28號,120.355001,23.759366
雲林基督教醫院,西螺鎮新豐里市場南路375號,120.441205,23.781220
安賢中醫診所,斗六市上海路136號1樓,120.538679,23.712578
復春中醫診所,西螺鎮正興里光復西路120號,120.461918,23.796990
黃憲唐中醫診所,斗六市北平路42號,120.536946,23.713577
菩義霖中醫診所,斗南鎮新興街130號,120.479066,23.674561
一品堂中醫診所,斗六市忠孝里永安路46號,120.547798,23.709800
中國醫藥大學北港附設醫院,北港鎮新街里新德路123號,120.307820,23.591763
觀心中醫診所,土庫鎮中正路96-3號,120.389853,23.675256
天主教若瑟醫院,虎尾鎮新生路74號,120.437886,23.708214
宏安中醫診所,二崙鄉中山路171號,120.411787,23.769407
泰成中醫診所,林內鄉中山路2-3號,120.615782,23.759000
一品堂虎尾中醫診所,虎尾鎮信義路38號、40號之1樓,120.437549,23.711603
崇德中醫診所,斗六市文化路69號,120.548338,23.711072
陳銘斌中醫診所,水林鄉水北村水林路104號,120.242968,23.572137
虎尾鎮農會附設中醫診所,虎尾鎮新興里光復路185號,120.444686,23.709395
上祐中醫診所,斗六市民生南路107號,120.537108,23.703116
一古堂中醫診所,莿桐鄉中正路66巷19之2號,120.502204,23.757688
永傳中醫診所,褒忠鄉中民路133號,120.309990,23.692111
保生堂中醫診所,莿桐鄉莿桐村中山路173號,120.499956,23.758676
蘭心中醫診所,斗六市中堅西路228號1樓,120.534710,23.701177
明鴻內婦科中醫診所,高雄市三民區義華路332號,120.334801,22.643775
善德中醫診所,高雄市三民區皓東路171之4、171之5號,120.334093,22.649370
高雄市立聯合醫院中醫科,高雄市鼓山區中華一路976號,120.291698,22.654924
大雄中醫診所,高雄市苓雅區興中一路247號,120.310772,22.617583
勝南中醫診所,高雄市三民區灣中街253號,120.318637,22.649231
九如中醫診所,高雄市三民區九如二路456、458號1樓,120.292213,22.641783
橋頭馬光中醫診所,高雄市橋頭區樹德路30號,120.305013,22.759381
意凡馬光中醫診所,高雄市左營區店仔頂路32號,120.291115,22.683221
佑昌馬光中醫診所,高雄市楠梓區德民路923號,120.289465,22.720738
崇心中醫診所,高雄市苓雅區林森二路142號1、2樓,120.306565,22.620756
明華馬光中醫診所,高雄市左營區明華一路192號,120.306015,22.663069
心保泰中醫診所,高雄市鳳山區保泰路150號,120.330279,22.600321
建功馬光中醫診所,高雄市三民區建工路700號1-3樓,120.320792,22.648896
光華馬光中醫診所,高雄市苓雅區光華一路148-23號1-2樓,120.316458,22.622385
尚揚馬光中醫診所,高雄市鳳山區文安街26號,120.347935,22.642323
宸品中醫診所,高雄市新興區七賢一路510號1樓,120.303310,22.634688
天乙中醫診所,高雄市三民區正興路187號,120.319582,22.647532
趙家瑩中醫診所,高雄市前鎮區二聖一路98號,120.324077,22.612257
翰林中醫診所,高雄市前金區中華三路179號1樓,120.294645,22.631907
誠德中醫診所,高雄市三民區自立一路305、305之1號1樓,120.297109,22.650541
得心中醫診所,高雄市彌陀區中正路93號,120.249053,22.781144
禾豐中醫診所,高雄市鳳山區鳳松路300號,120.363365,22.639261
行樂親子中醫診所,高雄市鼓山區華榮路432號,120.294295,22.669492
惠德中醫診所,高雄市左營區華夏路220號,120.296661,22.669734
康和中醫診所,高雄市新興區五福一路128號1樓,120.312599,22.627171
趙望吉中醫診所,高雄市三民區九如一路913號,120.315396,22.640122
陽明中醫診所,高雄市三民區覺民路586號,120.329215,22.641100
張倩華中醫診所,高雄市新興區林森一路111號1樓,120.304239,22.628323
天主教聖功醫院,高雄市苓雅區建國一路352號,120.323927,22.633118
一生堂中醫診所,高雄市苓雅區光華一路33號1樓,120.317220,22.619128
普笙中醫診所,高雄市苓雅區廣州一街121號1樓,120.317763,22.622273
鼻安中醫診所,高雄市三民區民族一路7號1樓,120.313683,22.640111
劉楠賢中醫診所,高雄市三民區正興路89號,120.320857,22.645586
右東中醫診所,高雄市前鎮區一心一路243-2號,120.315049,22.609095
進安中醫診所,高雄市三民區熱河一街351號,120.306625,22.643583
元氣中醫診所,高雄市鼓山區裕誠路1509之6號,120.295482,22.665051
明道中醫診所,高雄市鼓山區美術館路79號,120.290574,22.654575
三民承德中醫診所,高雄市三民區大豐二路288號1樓,120.332936,22.645389
泓民中醫診所,高雄市岡山區仁壽路36號,120.289576,22.792940
福康中醫診所,高雄市小港區沿海一路347號1、2樓,120.354743,22.564264
瑞安中醫診所,高雄市三民區陽明路392號1樓,120.342877,22.645795
福悅中醫診所,高雄市新興區七賢一路398號,120.306861,22.634463
新恩中醫診所,高雄市鳳山區鎮南街70號,120.329536,22.596253
新世紀中醫診所,高雄市三民區河堤路592號1、2樓,120.315127,22.666903
濟安中醫診所,高雄市新興區忠孝一路188號,120.305977,22.628236
銘祥中醫診所,高雄市三民區立忠路2之1號,120.325711,22.653725
莊敬中醫診所,高雄市三民區莊敬路11號,120.323531,22.655197
漢芳中醫診所,高雄市三民區建工路481號,120.323059,22.649003
博雄中醫診所,高雄市三民區博愛一路33號,120.302492,22.642282
福濟中醫診所,高雄市前鎮區翠亨北路271號,120.320886,22.588988
有德中醫診所,高雄市苓雅區建國一路89號,120.335559,22.630438
衫宥中醫診所,高雄市三民區建工路393號1、2樓,120.329905,22.652342
調明中醫診所,高雄市苓雅區三多二路263、265號1、2樓,120.314734,22.617581
大成中醫診所,高雄市苓雅區正言路76號,120.330776,22.631872
福祐中醫診所,高雄市前鎮區二聖二路301號,120.309676,22.613830
泓德中醫診所,高雄市前鎮區和平二路284號1樓,120.322774,22.615137
衛生福利部旗山醫院中醫科,高雄市旗山區中學路60號,120.483277,22.880693
高雄榮民總醫院傳統醫學科,高雄市左營區大中一路386號,120.322256,22.677696
高雄市立中醫醫院,高雄市苓雅區凱旋二路132號1至3樓,120.323972,22.625924
高雄市立岡山醫院,高雄市岡山區壽天路12號,120.294443,22.796612
高雄醫學大學附設醫院中醫部,高雄市三民區十全一路100號,120.310001,22.645178
高雄市立旗津醫院中醫科,高雄市旗津區旗港路33號,120.285113,22.590209
博田國際醫院中醫科,高雄市左營區博愛二路100號,120.303372,22.658131
中仁內婦科中醫診所,高雄市鹽埕區大仁路127號,120.283447,22.625834
黃志忠中醫診所,高雄市鼓山區麗雄街49號,120.272864,22.621632
文騫中醫診所,高雄市鼓山區西藏街320號,120.276747,22.654865
頂立中醫診所,高雄市鼓山區鼓山三路51巷31弄15號,120.274377,22.655894
百祐中醫聯合診所,高雄市左營區左營大路14之2號,120.287700,22.679950
健誠中醫診所,高雄市左營區部後街34號,,
展佳中醫診所,高雄市左營區元帝路76號1樓,120.293871,22.686650
恆德堂中醫診所,高雄市左營區富民路338之5號,120.305356,22.664100
安和中醫診所,高雄市左營區自由三路343號1-2樓,120.311937,22.674531
活水中醫診所,高雄市左營區富民路159號,120.305071,22.660266
精進中醫診所,高雄市楠梓區德民路222號,120.308499,22.726147
漢唐中醫診所,高雄市楠梓區德祥路189號,120.308040,22.726348
泰安內外科中醫診所,高雄市三民區建國二路156號,120.308466,22.637692
育生中醫診所,高雄市三民區昌裕街174號,120.329505,22.653199
楊濟鴻中醫診所,高雄市三民區北平二街29號,120.302274,22.650103
蕭穎士中醫診所,高雄市三民區九如一路72號,120.342513,22.636789
港泰中醫診所,高雄市三民區博愛一路100號,120.303304,22.643871
永安中醫診所,高雄市三民區瀋陽街109號,120.307214,22.642917
天惠中醫診所,高雄市三民區天祥一路199號,120.317942,22.667746
張瑞璋中醫診所,高雄市三民區自由一路91號,120.308496,22.643401
國源堂中醫診所,高雄市三民區建國二路170、172號,120.302109,22.638328
林吉原中醫診所,高雄市三民區明仁路18號1、2樓,120.314252,22.660612
鼎金中醫診所,高雄市三民區大豐二路160號1樓,120.330868,22.645492
劉如鎮中醫診所,高雄市三民區康德街50號,120.324670,22.644337
濟世中醫診所,高雄市三民區覺民路39號,120.343744,22.638628
澄清中醫診所,高雄市三民區澄平街218號,120.341558,22.646096
育森中醫診所,高雄市三民區鼎中路213號,120.319078,22.663760
佳德中醫診所,高雄市新興區復興一路97號,120.308070,22.632120
詠豐中醫診所,高雄市新興區自立一路24號,120.297704,22.634810
大德中醫診所,高雄市新興區六合一路96巷6號1樓,120.307948,22.632950
永康中醫診所,高雄市新興區復興一路119號,120.308304,22.635010
再生好中醫診所,高雄市新興區自立一路34號,120.297641,22.634982
慶元內科中醫診所,高雄市苓雅區大順三路274號,120.327011,22.635985
獅甲中醫診所,高雄市苓雅區三多三路214之10號,120.307779,22.615221
素琴中醫診所,高雄市苓雅區學源街9號,120.315591,22.618236
健原中醫診所,高雄市苓雅區忠孝二路8號,120.309802,22.616250
立群中醫診所,高雄市苓雅區五權街248號,120.317959,22.619980
大歡中醫診所,高雄市苓雅區四維一路280號,120.324769,22.624452
博愛中醫診所,高雄市苓雅區建國一路147號,120.329517,22.632437
蔡志君中醫診所,高雄市苓雅區林森二路11之2號,120.307874,22.616496
奇詮中醫診所,高雄市苓雅區福德三路220號,120.327224,22.627316
成功濟世中醫診所,高雄市苓雅區青年二路149號,120.295623,22.617660
宏安中醫診所,高雄市前鎮區鎮興路101號,120.312946,22.591044
全慶中醫診所,高雄市前鎮區瑞隆路548號1、2樓,120.327330,22.605335
正心中醫診所,高雄市前鎮區忠誠路217、219號,120.322614,22.601469
大盛中醫診所,高雄市前鎮區永豐路216號,120.333429,22.608782
安慶中醫診所,高雄市前鎮區凱旋四路338號,120.312932,22.593914
醫心館中醫診所,高雄市前鎮區一心一路370號,120.316416,22.608951
德生中醫診所,高雄市前鎮區中平路278號1樓,120.324164,22.577147
濟仁中醫診所,高雄市前鎮區瑞福路141號,120.335573,22.608208
民權中醫診所,高雄市前鎮區民權二路416號1樓,120.314244,22.611564
陳建霖中醫診所,高雄市前鎮區三多三路143號,120.310385,22.615698
慈惠中醫診所,高雄市旗津區中州巷40號,120.290314,22.586625
鳳中中醫診所,高雄市小港區二苓路222號,120.348459,22.565577
盧家中醫診所,高雄市鳳山區鳳南路167號1樓,120.336331,22.599896
鳳山濟世中醫診所,高雄市鳳山區中山東路72號,120.370811,22.623951
仁一中醫診所,高雄市鳳山區文德街31號1樓,,
湞宸中醫診所,高雄市鳳山區瑞隆東路256號1樓,120.339296,22.606283
乙元中醫診所,高雄市鳳山區建國路二段59之1號,120.361293,22.635387
文龍中醫診所,高雄市鳳山區文龍東路160號,120.370616,22.641144
鳳城中醫診所,高雄市鳳山區勝利路53號,120.373602,22.628499
德佐中醫診所,高雄市鳳山區文龍東路276號,120.367602,22.640802
惠仁堂中醫診所,高雄市旗山區復新街11號,120.482630,22.884793
仁美中醫診所,高雄市仁武區中正路138號,120.350485,22.702150
乙茆中醫診所,高雄市仁武區仁和街12號1樓,120.347982,22.702679
一心堂中醫診所,高雄市橋頭區橋頭里新興路23號,120.308854,22.759347
佳原中醫診所,高雄市茄萣區仁愛路二段86號,120.185158,22.896114
保安堂中醫診所,高雄市梓官區梓官路城隍巷22號,120.267711,22.759428
甘恩中醫診所,高雄市梓官區中正路100號,120.257664,22.727620
元生華榮中醫診所,高雄市鼓山區華榮路214號,120.297213,22.664041
華藏中醫診所,高雄市鼓山區九如四路758號,120.279247,22.651301
福得中醫診所,高雄市鼓山區明華路333號,120.301689,22.663222
詠心中醫診所,高雄市鼓山區華榮路291、293號1樓,120.291880,22.671212
裕順中醫診所,高雄市鼓山區美術東二路106號,120.288351,22.653594
慈恩中醫診所,高雄市鼓山區九如四路1470號,120.272290,22.661898
保生中醫診所,高雄市左營區自由四路147號1樓,120.314009,22.682455
昶陞中醫診所,高雄市左營區孟子路419號1樓,120.307597,22.675533
爵安堂中醫診所,高雄市左營區立大路133號,120.302580,22.676076
青松堂中醫診所,高雄市左營區華夏路765號,120.302960,22.679275
宏福中醫診所,高雄市左營區自由四路1、3號1、2樓,120.313404,22.679938
榮景中醫診所,高雄市左營區榮成一街17號,120.321250,22.678484
高鐵中醫診所,高雄市左營區華夏路1108號,120.308364,22.683363
元真中醫診所,高雄市左營區光興街235號,120.311462,22.663761
德滿堂中醫診所,高雄市左營區重愛路356號1樓,120.313438,22.687581
謝育霖中醫診所,高雄市左營區至聖路171號,120.307264,22.659497
六必居中醫診所,高雄市左營區文學路255、257號1樓,120.319376,22.688756
正大左營中醫診所,高雄市左營區富國路41號1、2樓,120.306439,22.657741
嘉安中醫診所,高雄市左營區新庄仔路237之1號1樓,120.306216,22.669734
韻心中醫診所,高雄市左營區軍校路610號,120.292921,22.705300
醫晟中醫診所,高雄市左營區裕誠路266號,120.309231,22.664978
天蘊中醫診所,高雄市左營區文自路226號1樓,120.307896,22.673266
仁德中醫診所,高雄市楠梓區建楠路182號,120.326196,22.727148
思恩堂中醫診所,高雄市楠梓區大學南路603號,120.285535,22.731998
鼎泰堂中醫診所,高雄市三民區河堤路490號,120.313222,22.664608
蕙林中醫診所,高雄市三民區寶興路38號,120.327340,22.644358
聖和中醫診所,高雄市三民區建國三路367號1、2樓,120.293272,22.636752
鴻生中醫診所,高雄市三民區義德路85號,120.335077,22.644867
亨木中醫診所,高雄市三民區山東街94號,120.311614,22.642918
宥程中醫診所,高雄市三民區興隆街6號1、2樓,120.319479,22.647236
鉑氏美中醫診所,高雄市三民區十全一路215號1樓,120.307676,22.644964
五福中醫診所,高雄市新興區五福二路35號1樓,120.308102,22.625266
永森中醫診所,高雄市新興區中山一路276號,120.302610,22.635238
天恩中醫診所,高雄市新興區青年一路138號,120.310761,22.623069
凱璿中醫診所,高雄市新興區民生一路330號,120.304190,22.627718
民馨中醫診所,高雄市新興區中正三路5號,120.311047,22.630434
合佗中醫診所,高雄市新興區六合路85號,120.316359,22.631830
國醫堂中醫診所,高雄市新興區青年一路452、454號1樓,120.302469,22.620253
仁馨中醫診所,高雄市苓雅區英明路118之1、120號1樓,120.325391,22.614331
太壹中醫診所,高雄市苓雅區興中一路46號,120.315164,22.619381
正義中醫診所,高雄市苓雅區正義路149號,120.339234,22.631239
博安中醫診所,高雄市苓雅區福德二路12號,120.328012,22.630407
家康中醫診所,高雄市苓雅區福安路15號1樓,120.330879,22.624973
杉合中醫診所,高雄市苓雅區中正二路20號,120.321111,22.630243
高雄漢唐中醫診所,高雄市苓雅區中山二路410號8樓,120.303090,22.618489
默默中醫診所,高雄市苓雅區三多二路157號,120.323695,22.619986
金湛中醫診所,高雄市前鎮區黃埔街28號,120.321264,22.610749
心路中醫診所,高雄市前鎮區一心二路86號,120.310407,22.611533
杏安中醫診所,高雄市小港區宏平路347號,120.359903,22.569642
牧水中醫診所,高雄市小港區山明路166、168號1樓,120.361061,22.571172
小港濟世中醫診所,高雄市小港區沿海一路49號,120.349413,22.569699
宏霖中醫診所,高雄市三民區陽明路72號,120.341632,22.639593
康喬中醫診所,高雄市楠梓區德民路999之7號,120.286973,22.719460
進祥中醫診所,高雄市左營區華夏路213號,120.296223,22.669782
祐祥中醫診所,高雄市楠梓區右昌街718號1樓,120.283921,22.719179
義大醫療財團法人義大癌治療醫院,高雄市燕巢區義大路21號,120.365844,22.765915
五乙中醫診所,高雄市楠梓區興楠路17號,120.339425,22.731501
祥霖中醫診所,高雄市三民區聯興路125號,120.313975,22.658674
濟民中醫診所,高雄市新興區中山一路61號,120.301429,22.629660
